{"type":"FeatureCollection",

"features":[
  {"type":"Feature","geometry":{"type":"Point","coordinates":[-90.0822913459,29.9236101247]},"properties":{"Trade_Name":"THE DUCHESS","City":"NEW ORLEANS","State":"LA","Zip":"70115","Descriptio":"4703 BED & BREAKFAST INNS","Address":"833 6TH ST"}},{"type":"Feature","geometry":{"type":"Point","coordinates":[-90.1222564836,29.9723440625]},"properties":{"Trade_Name":"LONDON LODGE MOTEL","City":"NEW ORLEANS","State":"LA","Zip":"70118-1802","Descriptio":"4701 HOTELS (EXC CASINO HOTELS) & MOTELS","Address":"9301 AIRLINE HWY"}},{"type":"Feature","geometry":{"type":"Point","coordinates":[-90.0663679545,29.9418114304]},"properties":{"Trade_Name":"JELLY ROLL SUITES","City":"NEW ORLEANS","State":"LA","Zip":"","Descriptio":"4701 HOTELS (EXC CASINO HOTELS) & MOTELS","Address":"320 ANDREW HIGGINS ST"}},{"type":"Feature","geometry":{"type":"Point","coordinates":[-90.0684768283,29.938445141]},"properties":{"Trade_Name":"FLUER DE LIS MANSION","City":"NEW ORLEANS","State":"LA","Zip":"70130","Descriptio":"4703 BED & BREAKFAST INNS","Address":"1216 ANNUNCIATION ST"}},{"type":"Feature","geometry":{"type":"Point","coordinates":[-90.0726448405,29.9511412873]},"properties":{"Trade_Name":"COMFORT SUITES","City":"NEW ORLEANS","State":"LA","Zip":"70112-1627","Descriptio":"4701 HOTELS (EXC CASINO HOTELS) & MOTELS","Address":"346 BARONNE ST"}},{"type":"Feature","geometry":{"type":"Point","coordinates":[-90.072338963,29.9531789058]},"properties":{"Trade_Name":"DELTA PROFICIENT MANAGEMENT, LLC","City":"NEW ORLEANS","State":"LA","Zip":"70112","Descriptio":"4701 HOTELS (EXC CASINO HOTELS) & MOTELS","Address":"201 BARONNE ST"}},{"type":"Feature","geometry":{"type":"Point","coordinates":[-90.0716495673,29.9539319993]},"properties":{"Trade_Name":"THE ROOSEVELT HOTEL WAC","City":"NEW ORLEANS","State":"LA","Zip":"70112","Descriptio":"4701 HOTELS (EXC CASINO HOTELS) & MOTELS","Address":"123 BARONNE ST"}},{"type":"Feature","geometry":{"type":"Point","coordinates":[-90.0607508802,29.9631698587]},"properties":{"Trade_Name":"ROYAL BARRACKS GUEST HOUSE - CLOSE","City":"NEW ORLEANS","State":"LA","Zip":"70116-2516","Descriptio":"4702 ROOMING & BOARDING HOUSES","Address":"717 BARRACKS ST"}},{"type":"Feature","geometry":{"type":"Point","coordinates":[-90.0746776601,29.9746039324]},"properties":{"Trade_Name":"Joan Mitchell Center on Bayou Road, LLC","City":"NEW ORLEANS","State":"LA","Zip":"70119","Descriptio":"4703 BED & BREAKFAST INNS","Address":"2275 Bayou Rd"}},{"type":"Feature","geometry":{"type":"Point","coordinates":[-90.0480860417,29.9528055145]},"properties":{"Trade_Name":"BELLEVILLE COTTAGE BED &      BREAKFAST","City":"NEW ORLEANS","State":"LA","Zip":"70114-1112","Descriptio":"4703 BED & BREAKFAST INNS","Address":"317 BELLEVILLE ST"}},{"type":"Feature","geometry":{"type":"Point","coordinates":[-90.0682477952,29.9551007057]},"properties":{"Trade_Name":"ST. LOUIS HOTEL","City":"NEW ORLEANS","State":"LA","Zip":"70130","Descriptio":"4701 HOTELS (EXC CASINO HOTELS) & MOTELS","Address":"730 BIENVILLE ST"}},{"type":"Feature","geometry":{"type":"Point","coordinates":[-90.0538331651,29.9509691659]},"properties":{"Trade_Name":"ZORA-A NEW ORLENS B & B","City":"NEW ORLEANS","State":"LA","Zip":"70114","Descriptio":"4703 BED & BREAKFAST INNS","Address":"420 BOUNY ST"}},{"type":"Feature","geometry":{"type":"Point","coordinates":[-90.0644609427,29.9601383533]},"properties":{"Trade_Name":"BON MAISON GUEST HOUSE","City":"NEW ORLEANS","State":"LA","Zip":"70116-3106","Descriptio":"4702 ROOMING & BOARDING HOUSES","Address":"835 BOURBON ST"}},{"type":"Feature","geometry":{"type":"Point","coordinates":[-90.0644040577,29.9602021945]},"properties":{"Trade_Name":"BOURGOYNE GUEST HOUSE","City":"NEW ORLEANS","State":"LA","Zip":"70116-3106","Descriptio":"4703 BED & BREAKFAST INNS","Address":"839 BOURBON ST"}},{"type":"Feature","geometry":{"type":"Point","coordinates":[-90.0666388698,29.9576849937]},"properties":{"Trade_Name":"FOUR POINTS BY SHERATON FRENCH QUARTER","City":"NEW ORLEANS","State":"LA","Zip":"70130","Descriptio":"4701 HOTELS (EXC CASINO HOTELS) & MOTELS","Address":"541 BOURBON ST"}},{"type":"Feature","geometry":{"type":"Point","coordinates":[-90.0602433722,29.9643376906]},"properties":{"Trade_Name":"LA MAISON MARIGNY B & B","City":"NEW ORLEANS","State":"LA","Zip":"70116-2008","Descriptio":"4703 BED & BREAKFAST INNS","Address":"1421 BOURBON ST"}},{"type":"Feature","geometry":{"type":"Point","coordinates":[-90.0635380312,29.9612754783]},"properties":{"Trade_Name":"LAFITTE GUEST HOUSE","City":"NEW ORLEANS","State":"LA","Zip":"70116","Descriptio":"4701 HOTELS (EXC CASINO HOTELS) & MOTELS","Address":"1003 BOURBON ST"}},{"type":"Feature","geometry":{"type":"Point","coordinates":[-90.0679893533,29.955643631]},"properties":{"Trade_Name":"ROYAL SONESTA HOTEL","City":"NEW ORLEANS","State":"LA","Zip":"70130","Descriptio":"4701 HOTELS (EXC CASINO HOTELS) & MOTELS","Address":"300 BOURBON ST"}},{"type":"Feature","geometry":{"type":"Point","coordinates":[-90.0746722443,29.9805722844]},"properties":{"Trade_Name":"NEW ORLEANS FESTIVAL HOUSE","City":"NEW ORLEANS","State":"LA","Zip":"70119","Descriptio":"4703 BED & BREAKFAST INNS","Address":"1653 BROAD ST N"}},{"type":"Feature","geometry":{"type":"Point","coordinates":[-89.9625088255,30.0486230956]},"properties":{"Trade_Name":"COMFORT SUITES","City":"NEW ORLEANS","State":"LA","Zip":"70128-2307","Descriptio":"4701 HOTELS (EXC CASINO HOTELS) & MOTELS","Address":"7051 BULLARD AVE"}},{"type":"Feature","geometry":{"type":"Point","coordinates":[-89.9620410166,30.0484747576]},"properties":{"Trade_Name":"HOLIDAY INN EXPRESS","City":"NEW ORLEANS","State":"LA","Zip":"70128","Descriptio":"4701 HOTELS (EXC CASINO HOTELS) & MOTELS","Address":"7049 BULLARD AVE"}},{"type":"Feature","geometry":{"type":"Point","coordinates":[-90.0597847439,29.966129765]},"properties":{"Trade_Name":"BURGUNDY COTTAGE","City":"NEW ORLEANS","State":"LA","Zip":"70116","Descriptio":"4703 BED & BREAKFAST INNS","Address":"1914 BURGUNDY ST"}},{"type":"Feature","geometry":{"type":"Point","coordinates":[-90.0697083978,29.9573984158]},"properties":{"Trade_Name":"DAUZAT HOUSE","City":"NEW ORLEANS","State":"LA","Zip":"70112-3115","Descriptio":"4702 ROOMING & BOARDING HOUSES","Address":"337 BURGUNDY ST"}},{"type":"Feature","geometry":{"type":"Point","coordinates":[-90.0659884767,29.9616877757]},"properties":{"Trade_Name":"HOTEL ST.PIERRE","City":"NEW ORLEANS","State":"LA","Zip":"70116","Descriptio":"4701 HOTELS (EXC CASINO HOTELS) & MOTELS","Address":"911 BURGUNDY ST"}},{"type":"Feature","geometry":{"type":"Point","coordinates":[-90.0373920686,29.9634764979]},"properties":{"Trade_Name":"MAISON DE MACARTY","City":"NEW ORLEANS","State":"LA","Zip":"70117","Descriptio":"4703 BED & BREAKFAST INNS","Address":"3820 BURGUNDY ST"}},{"type":"Feature","geometry":{"type":"Point","coordinates":[-90.0585054801,29.9661954566]},"properties":{"Trade_Name":"SUN OAK MUSEUM AND GUEST HOUSE","City":"NEW ORLEANS","State":"LA","Zip":"70116-1606","Descriptio":"4703 BED & BREAKFAST INNS","Address":"2020 BURGUNDY ST"}},{"type":"Feature","geometry":{"type":"Point","coordinates":[-90.0515537719,29.9670995252]},"properties":{"Trade_Name":"THE BURGUNDY BED & BREAKFAST","City":"NEW ORLEANS","State":"LA","Zip":"70117-7831","Descriptio":"4703 BED & BREAKFAST INNS","Address":"2513 BURGUNDY ST"}},{"type":"Feature","geometry":{"type":"Point","coordinates":[-90.0690266799,29.9511613906]},"properties":{"Trade_Name":"INTERNATIONAL HOUSE HOTEL","City":"NEW ORLEANS","State":"LA","Zip":"70130-2701","Descriptio":"4701 HOTELS (EXC CASINO HOTELS) & MOTELS","Address":"221 CAMP ST"}},{"type":"Feature","geometry":{"type":"Point","coordinates":[-90.0690124706,29.9508632673]},"properties":{"Trade_Name":"LA QUINTA INN & SUITES #983  4701","City":"NEW ORLEANS","State":"LA","Zip":"70130","Descriptio":"4701 HOTELS (EXC CASINO HOTELS) & MOTELS","Address":"301 CAMP ST"}},{"type":"Feature","geometry":{"type":"Point","coordinates":[-90.0689959477,29.9500494119]},"properties":{"Trade_Name":"QUEEN & CRESCENT HOTEL","City":"NEW ORLEANS","State":"LA","Zip":"70130","Descriptio":"4701 HOTELS (EXC CASINO HOTELS) & MOTELS","Address":"344 CAMP ST"}},{"type":"Feature","geometry":{"type":"Point","coordinates":[-90.0696082956,29.953863481]},"properties":{"Trade_Name":"ASTOR CROWN PLAZA NEW ORLEANS","City":"NEW ORLEANS","State":"LA","Zip":"70130","Descriptio":"4701 HOTELS (EXC CASINO HOTELS) & MOTELS","Address":"739 CANAL ST"}},{"type":"Feature","geometry":{"type":"Point","coordinates":[-90.0966937764,29.9714808424]},"properties":{"Trade_Name":"CANAL STREET INN","City":"NEW ORLEANS","State":"LA","Zip":"70119","Descriptio":"4701 HOTELS (EXC CASINO HOTELS) & MOTELS","Address":"3620 CANAL ST"}},{"type":"Feature","geometry":{"type":"Point","coordinates":[-90.0743205607,29.9564205174]},"properties":{"Trade_Name":"CLARION INN & SUITES","City":"NEW ORLEANS","State":"LA","Zip":"70112-2713","Descriptio":"4701 HOTELS (EXC CASINO HOTELS) & MOTELS","Address":"1300 CANAL ST"}},{"type":"Feature","geometry":{"type":"Point","coordinates":[-90.0660908305,29.9508422221]},"properties":{"Trade_Name":"DOUBLE TREE BY HILTON NEW ORLEANS","City":"NEW ORLEANS","State":"LA","Zip":"70130","Descriptio":"4701 HOTELS (EXC CASINO HOTELS) & MOTELS","Address":"300 CANAL ST"}},{"type":"Feature","geometry":{"type":"Point","coordinates":[-90.0660908305,29.9508422221]},"properties":{"Trade_Name":"DOUBLETREE HOTEL","City":"NEW ORLEANS","State":"LA","Zip":"70130-1104","Descriptio":"4701 HOTELS (EXC CASINO HOTELS) & MOTELS","Address":"300 CANAL ST"}},{"type":"Feature","geometry":{"type":"Point","coordinates":[-90.0688762278,29.9527043422]},"properties":{"Trade_Name":"JW MARRIOT NEW ORLEANS","City":"NEW ORLEANS","State":"LA","Zip":"70130","Descriptio":"4701 HOTELS (EXC CASINO HOTELS) & MOTELS","Address":"614 CANAL ST"}},{"type":"Feature","geometry":{"type":"Point","coordinates":[-90.0676066935,29.9524822152]},"properties":{"Trade_Name":"NEW ORLEANS MARRIOTT HOTEL-[H/P]","City":"NEW ORLEANS","State":"LA","Zip":"70130","Descriptio":"4701 HOTELS (EXC CASINO HOTELS) & MOTELS","Address":"555 CANAL ST"}},{"type":"Feature","geometry":{"type":"Point","coordinates":[-90.0674944523,29.9517829918]},"properties":{"Trade_Name":"SHERATON NEW ORLEANS HOTEL","City":"NEW ORLEANS","State":"LA","Zip":"70130","Descriptio":"4701 HOTELS (EXC CASINO HOTELS) & MOTELS","Address":"500 CANAL ST"}},{"type":"Feature","geometry":{"type":"Point","coordinates":[-90.0707872101,29.9552264986]},"properties":{"Trade_Name":"THE RITZ CARLTON HOTEL CO LLC","City":"NEW ORLEANS","State":"LA","Zip":"70112-2503","Descriptio":"4701 HOTELS (EXC CASINO HOTELS) & MOTELS","Address":"921 CANAL ST"}},{"type":"Feature","geometry":{"type":"Point","coordinates":[-90.0713615278,29.9551107379]},"properties":{"Trade_Name":"The Saint Hotel","City":"NEW ORLEANS","State":"LA","Zip":"70112","Descriptio":"4701 HOTELS (EXC CASINO HOTELS) & MOTELS","Address":"931 CANAL ST"}},{"type":"Feature","geometry":{"type":"Point","coordinates":[-90.0713847448,29.950973664]},"properties":{"Trade_Name":"ALFREDS AWAY","City":"NEW ORLEANS","State":"LA","Zip":"70130","Descriptio":"4704 TRAVELER ACCOMMODATION, ALL OTH","Address":"334 CARONDELET ST"}},{"type":"Feature","geometry":{"type":"Point","coordinates":[-90.0723125377,29.9478692422]},"properties":{"Trade_Name":"ANTHONY SCHEMBRE","City":"NEW ORLEANS","State":"LA","Zip":"70130-3504","Descriptio":"4702 ROOMING & BOARDING HOUSES","Address":"632 CARONDELET ST"}},{"type":"Feature","geometry":{"type":"Point","coordinates":[-90.0775745008,29.9384941899]},"properties":{"Trade_Name":"AUBERGE NOUVELLE ORLEANS","City":"NEW ORLEANS","State":"LA","Zip":"70130","Descriptio":"4703 BED & BREAKFAST INNS","Address":"1628 CARONDELET ST"}},{"type":"Feature","geometry":{"type":"Point","coordinates":[-90.0657180439,29.9482845444]},"properties":{"Trade_Name":"HARRAH'S POYDRAS HOTEL","City":"NEW ORLEANS","State":"LA","Zip":"70130","Descriptio":"2060 CASINO HOTELS","Address":"228 POYDRAS ST"}},{"type":"Feature","geometry":{"type":"Point","coordinates":[-90.0711999576,29.9523471782]},"properties":{"Trade_Name":"COTTON EXCHANGE HOTEL","City":"NEW ORLEANS","State":"LA","Zip":"70130","Descriptio":"4701 HOTELS (EXC CASINO HOTELS) & MOTELS","Address":"221 CARONDELET ST"}},{"type":"Feature","geometry":{"type":"Point","coordinates":[-90.0710199965,29.952135635]},"properties":{"Trade_Name":"EMPORIA L C HAMPTON INN NEW   ORLEANS","City":"NEW ORLEANS","State":"LA","Zip":"70130-2901","Descriptio":"4701 HOTELS (EXC CASINO HOTELS) & MOTELS","Address":"226 CARONDELET ST"}},{"type":"Feature","geometry":{"type":"Point","coordinates":[-90.0711999576,29.9523471782]},"properties":{"Trade_Name":"HOLIDAY INN EXPRESS","City":"NEW ORLEANS","State":"LA","Zip":"70130-3002","Descriptio":"4701 HOTELS (EXC CASINO HOTELS) & MOTELS","Address":"221 CARONDELET ST"}},{"type":"Feature","geometry":{"type":"Point","coordinates":[-90.0826236631,29.934396083]},"properties":{"Trade_Name":"MARQUETTE HOUSE HOTEL","City":"NEW ORLEANS","State":"LA","Zip":"70130-5809","Descriptio":"4701 HOTELS (EXC CASINO HOTELS) & MOTELS","Address":"2253 CARONDELET ST"}},{"type":"Feature","geometry":{"type":"Point","coordinates":[-90.1263729984,29.9507646319]},"properties":{"Trade_Name":"LOTUS HOUSE","City":"NEW ORLEANS","State":"LA","Zip":"70118-2826","Descriptio":"4703 BED & BREAKFAST INNS","Address":"1626 S CARROLLTON AVE"}},{"type":"Feature","geometry":{"type":"Point","coordinates":[-90.0552689958,29.9638192156]},"properties":{"Trade_Name":"2241 CHARTRES LLC","City":"NEW ORLEANS","State":"LA","Zip":"70117","Descriptio":"4701 HOTELS (EXC CASINO HOTELS) & MOTELS","Address":"2241 CHARTRES ST"}},{"type":"Feature","geometry":{"type":"Point","coordinates":[-90.0533195079,29.9640394725]},"properties":{"Trade_Name":"B & W COURTYARDS BED & BREAKFAST","City":"NEW ORLEANS","State":"LA","Zip":"70117-8606","Descriptio":"4703 BED & BREAKFAST INNS","Address":"2425 CHARTRES ST"}},{"type":"Feature","geometry":{"type":"Point","coordinates":[-90.0616752544,29.9601121522]},"properties":{"Trade_Name":"CHATEAU MOTOR HOTEL LLC","City":"NEW ORLEANS","State":"LA","Zip":"70116-3201","Descriptio":"4701 HOTELS (EXC CASINO HOTELS) & MOTELS","Address":"1001 CHARTRES ST"}},{"type":"Feature","geometry":{"type":"Point","coordinates":[-90.0572906132,29.9633680084]},"properties":{"Trade_Name":"FAIR FOLKS","City":"NEW ORLEANS","State":"LA","Zip":"70016","Descriptio":"4703 BED & BREAKFAST INNS","Address":"2114 CHARTRES ST"}},{"type":"Feature","geometry":{"type":"Point","coordinates":[-90.0572906132,29.9633680084]},"properties":{"Trade_Name":"FRENCHMEN STREET BED & BREAKFAST","City":"NEW ORLEANS","State":"LA","Zip":"70116","Descriptio":"4703 BED & BREAKFAST INNS","Address":"2116 CHARTRES ST"}},{"type":"Feature","geometry":{"type":"Point","coordinates":[-90.0609401398,29.9599981654]},"properties":{"Trade_Name":"HOTEL PROVINCIAL","City":"NEW ORLEANS","State":"LA","Zip":"70116","Descriptio":"4701 HOTELS (EXC CASINO HOTELS) & MOTELS","Address":"1024 CHARTRES ST"}},{"type":"Feature","geometry":{"type":"Point","coordinates":[-90.0595011844,29.9618442768]},"properties":{"Trade_Name":"LE RICHELIEU CORP","City":"NEW ORLEANS","State":"LA","Zip":"70116-2507","Descriptio":"4701 HOTELS (EXC CASINO HOTELS) & MOTELS","Address":"1234 CHARTRES ST"}},{"type":"Feature","geometry":{"type":"Point","coordinates":[-90.0524411732,29.9640908]},"properties":{"Trade_Name":"LIONS INN","City":"New Orleans","State":"LA","Zip":"","Descriptio":"4703 BED & BREAKFAST INNS","Address":"2517 CHARTRES ST"}},{"type":"Feature","geometry":{"type":"Point","coordinates":[-90.0606112409,29.9613314798]},"properties":{"Trade_Name":"SONIAT HOUSE","City":"NEW ORLEANS","State":"LA","Zip":"70116-2504","Descriptio":"4701 HOTELS (EXC CASINO HOTELS) & MOTELS","Address":"1133 CHARTRES ST"}},{"type":"Feature","geometry":{"type":"Point","coordinates":[-90.0648960708,29.9559470512]},"properties":{"Trade_Name":"ST. HELENE HOTEL","City":"NEW ORLEANS","State":"LA","Zip":"70130-2110","Descriptio":"4701 HOTELS (EXC CASINO HOTELS) & MOTELS","Address":"508 CHARTRES ST"}},{"type":"Feature","geometry":{"type":"Point","coordinates":[-90.0663443688,29.9544895563]},"properties":{"Trade_Name":"W FRENCH QUARTER HOTEL","City":"NEW ORLEANS","State":"LA","Zip":"70130","Descriptio":"4701 HOTELS (EXC CASINO HOTELS) & MOTELS","Address":"316 CHARTRES ST"}},{"type":"Feature","geometry":{"type":"Point","coordinates":[-90.057439039,29.9637809769]},"properties":{"Trade_Name":"WILLIAMS PERASSO","City":"NEW ORLEANS","State":"LA","Zip":"70116","Descriptio":"4703 BED & BREAKFAST INNS","Address":"2111 CHARTRES ST"}},{"type":"Feature","geometry":{"type":"Point","coordinates":[-90.0000187395,30.0112610377]},"properties":{"Trade_Name":"A & C CORPORATION","City":"NEW ORLEANS","State":"LA","Zip":"70126","Descriptio":"4701 HOTELS (EXC CASINO HOTELS) & MOTELS","Address":"7418 CHEF MENTEUR HWY"}},{"type":"Feature","geometry":{"type":"Point","coordinates":[-90.0182879715,30.0087984011]},"properties":{"Trade_Name":"BEST WAY INN & SUITES","City":"NEW ORLEANS","State":"LA","Zip":"70126","Descriptio":"4701 HOTELS (EXC CASINO HOTELS) & MOTELS","Address":"6042 CHEF MENTEUR HWY"}},{"type":"Feature","geometry":{"type":"Point","coordinates":[-89.9865501267,30.0142451005]},"properties":{"Trade_Name":"BUDGET INN EXPRESS","City":"NEW ORLEANS","State":"LA","Zip":"70127-4038","Descriptio":"4701 HOTELS (EXC CASINO HOTELS) & MOTELS","Address":"8542 CHEF MENTEUR HWY"}},{"type":"Feature","geometry":{"type":"Point","coordinates":[-90.0321443907,30.0064055028]},"properties":{"Trade_Name":"ECONO LODGE","City":"NEW ORLEANS","State":"LA","Zip":"70126-5016","Descriptio":"4701 HOTELS (EXC CASINO HOTELS) & MOTELS","Address":"4940 CHEF MENTEUR HWY"}},{"type":"Feature","geometry":{"type":"Point","coordinates":[-89.9898261518,30.0137044893]},"properties":{"Trade_Name":"ECONOMY INN","City":"NEW ORLEANS","State":"LA","Zip":"70126-5345","Descriptio":"4704 TRAVELER ACCOMMODATION, ALL OTH","Address":"8310 CHEF MENTEUR HWY"}},{"type":"Feature","geometry":{"type":"Point","coordinates":[-90.0150587482,30.0114329429]},"properties":{"Trade_Name":"FAMILY INN OF NEW ORLEANS","City":"NEW ORLEANS","State":"LA","Zip":"70126","Descriptio":"4704 TRAVELER ACCOMMODATION, ALL OTH","Address":"6303 CHEF MENTEUR HWY"}},{"type":"Feature","geometry":{"type":"Point","coordinates":[-89.9935804336,30.0128773806]},"properties":{"Trade_Name":"GLENROSE MOTEL","City":"NEW ORLEANS","State":"LA","Zip":"70126-5344","Descriptio":"4701 HOTELS (EXC CASINO HOTELS) & MOTELS","Address":"7930 CHEF MENTEUR HWY"}},{"type":"Feature","geometry":{"type":"Point","coordinates":[-89.9969966028,30.0124827137]},"properties":{"Trade_Name":"JACKS MOTEL","City":"NEW ORLEANS","State":"LA","Zip":"70126","Descriptio":"4701 HOTELS (EXC CASINO HOTELS) & MOTELS","Address":"7700 CHEF MENTEUR HWY"}},{"type":"Feature","geometry":{"type":"Point","coordinates":[-90.0181641512,30.0108337906]},"properties":{"Trade_Name":"MONTE CARLO MOTEL","City":"NEW ORLEANS","State":"LA","Zip":"70126-5141","Descriptio":"4701 HOTELS (EXC CASINO HOTELS) & MOTELS","Address":"6061 CHEF MENTEUR HWY"}},{"type":"Feature","geometry":{"type":"Point","coordinates":[-90.0308686967,30.0077490186]},"properties":{"Trade_Name":"NEW ORLEANS INN","City":"NEW ORLEANS","State":"LA","Zip":"70126-5017","Descriptio":"4704 TRAVELER ACCOMMODATION, ALL OTH","Address":"5035 CHEF MENTEUR HWY"}},{"type":"Feature","geometry":{"type":"Point","coordinates":[-89.9237624106,30.0317506802]},"properties":{"Trade_Name":"RELAX INN","City":"NEW ORLEANS","State":"LA","Zip":"70129-1815","Descriptio":"4701 HOTELS (EXC CASINO HOTELS) & MOTELS","Address":"13552 CHEF MENTEUR HWY"}},{"type":"Feature","geometry":{"type":"Point","coordinates":[-90.0182879715,30.0087984011]},"properties":{"Trade_Name":"RIVERA MOTEL","City":"NEW ORLEANS","State":"LA","Zip":"70126","Descriptio":"4701 HOTELS (EXC CASINO HOTELS) & MOTELS","Address":"6042 CHEF MENTEUR HWY"}},{"type":"Feature","geometry":{"type":"Point","coordinates":[-90.0318119809,30.0067618951]},"properties":{"Trade_Name":"ROYAL INN OF NEW ORLEANS","City":"NEW ORLEANS","State":"LA","Zip":"70126","Descriptio":"4701 HOTELS (EXC CASINO HOTELS) & MOTELS","Address":"4950 CHEF MENTEUR HWY"}},{"type":"Feature","geometry":{"type":"Point","coordinates":[-89.995543254,30.0126751634]},"properties":{"Trade_Name":"ROYAL PALMS MOTEL","City":"NEW ORLEANS","State":"LA","Zip":"70126","Descriptio":"4701 HOTELS (EXC CASINO HOTELS) & MOTELS","Address":"7800 CHEF MENTEUR HWY"}},{"type":"Feature","geometry":{"type":"Point","coordinates":[-90.0144649789,30.0095990559]},"properties":{"Trade_Name":"SUPER 8 MOTEL","City":"NEW ORLEANS","State":"LA","Zip":"70126-5129","Descriptio":"4701 HOTELS (EXC CASINO HOTELS) & MOTELS","Address":"6322 CHEF MENTEUR HWY"}},{"type":"Feature","geometry":{"type":"Point","coordinates":[-90.0831628761,29.9284460336]},"properties":{"Trade_Name":"PARKS BOWMAN HOUSE","City":"NEW ORLEANS","State":"LA","Zip":"70130","Descriptio":"4703 BED & BREAKFAST INNS","Address":"2705 CHESTNUT ST"}},{"type":"Feature","geometry":{"type":"Point","coordinates":[-90.0924556782,29.9828540702]},"properties":{"Trade_Name":"OAKVIEW BED & BREAKFAST","City":"NEW ORLEANS","State":"LA","Zip":"70119","Descriptio":"4703 BED & BREAKFAST INNS","Address":"1172 CITY PARK AVE"}},{"type":"Feature","geometry":{"type":"Point","coordinates":[-90.0911094293,29.9447893617]},"properties":{"Trade_Name":"MASON MOTEL INC","City":"NEW ORLEANS","State":"LA","Zip":"70125-3915","Descriptio":"4701 HOTELS (EXC CASINO HOTELS) & MOTELS","Address":"2309 S CLAIBORNE AVE"}},{"type":"Feature","geometry":{"type":"Point","coordinates":[-90.0446627618,29.9670406606]},"properties":{"Trade_Name":"BYWATER BED & BREAKFAST","City":"NEW ORLEANS","State":"LA","Zip":"70117-6661","Descriptio":"4703 BED & BREAKFAST INNS","Address":"1026 CLOUET ST"}},{"type":"Feature","geometry":{"type":"Point","coordinates":[-90.0672136668,29.9509508344]},"properties":{"Trade_Name":"PELHAM HOTEL","City":"NEW ORLEANS","State":"LA","Zip":"70130","Descriptio":"4701 HOTELS (EXC CASINO HOTELS) & MOTELS","Address":"444 COMMON ST"}},{"type":"Feature","geometry":{"type":"Point","coordinates":[-90.0713302579,29.9530139193]},"properties":{"Trade_Name":"RENAISSANCE PERE MARQUETTE","City":"NEW ORLEANS","State":"LA","Zip":"70112","Descriptio":"4701 HOTELS (EXC CASINO HOTELS) & MOTELS","Address":"817 COMMON ST"}},{"type":"Feature","geometry":{"type":"Point","coordinates":[-90.0972303128,29.9238027343]},"properties":{"Trade_Name":"CHIMES BED & BREAKFAST (THE)","City":"NEW ORLEANS","State":"LA","Zip":"70115-2759","Descriptio":"4701 HOTELS (EXC CASINO HOTELS) & MOTELS","Address":"1146 CONSTANTINOPLE ST"}},{"type":"Feature","geometry":{"type":"Point","coordinates":[-90.0670909516,29.9561931893]},"properties":{"Trade_Name":"HOTEL LE MARAIS","City":"NEW ORLEANS","State":"LA","Zip":"70130","Descriptio":"4701 HOTELS (EXC CASINO HOTELS) & MOTELS","Address":"717 CONTI ST"}},{"type":"Feature","geometry":{"type":"Point","coordinates":[-90.0683855336,29.9565431995]},"properties":{"Trade_Name":"PRINCE CONTI HOTEL","City":"NEW ORLEANS","State":"LA","Zip":"70112-3440","Descriptio":"4701 HOTELS (EXC CASINO HOTELS) & MOTELS","Address":"830 CONTI ST"}},{"type":"Feature","geometry":{"type":"Point","coordinates":[-90.0647106359,29.9406723525]},"properties":{"Trade_Name":"HAMPTON INN & SUITES COVN     CENTER","City":"NEW ORLEANS","State":"LA","Zip":"","Descriptio":"4701 HOTELS (EXC CASINO HOTELS) & MOTELS","Address":"1101 CONVENTION CENTER BLVD"}},{"type":"Feature","geometry":{"type":"Point","coordinates":[-90.0647750952,29.9424824336]},"properties":{"Trade_Name":"HYATT PLACE NEW ORLEANS","City":"NEW ORLEANS","State":"LA","Zip":"70130","Descriptio":"4701 HOTELS (EXC CASINO HOTELS) & MOTELS","Address":"881 CONVENTION CENTER BLVD"}},{"type":"Feature","geometry":{"type":"Point","coordinates":[-90.0647926643,29.943244703]},"properties":{"Trade_Name":"NEW ORLEANS MARRIOTT AT THE CONVENTION CENTER-[H/P","City":"NEW ORLEANS","State":"LA","Zip":"70130","Descriptio":"4701 HOTELS (EXC CASINO HOTELS) & MOTELS","Address":"859 CONVENTION CENTER BLVD"}},{"type":"Feature","geometry":{"type":"Point","coordinates":[-90.0648767448,29.9456065536]},"properties":{"Trade_Name":"Wyndham Riverfront N.O.","City":"NEW ORLEANS","State":"LA","Zip":"70130","Descriptio":"4701 HOTELS (EXC CASINO HOTELS) & MOTELS","Address":"701 Convention Center Blvd"}},{"type":"Feature","geometry":{"type":"Point","coordinates":[-90.0603615926,29.9651915759]},"properties":{"Trade_Name":"1830 DAUPHINE HOUSE","City":"NEW ORLEANS","State":"LA","Zip":"70116-1927","Descriptio":"4703 BED & BREAKFAST INNS","Address":"1830 DAUPHINE ST"}},{"type":"Feature","geometry":{"type":"Point","coordinates":[-90.0603642045,29.9657022944]},"properties":{"Trade_Name":"A CREOLE COTTAGE","City":"NEW ORLEANS","State":"LA","Zip":"70116-1926","Descriptio":"4703 BED & BREAKFAST INNS","Address":"1827 DAUPHINE ST"}},{"type":"Feature","geometry":{"type":"Point","coordinates":[-90.0678297796,29.9579187657]},"properties":{"Trade_Name":"Audubon Cottages","City":"NEW ORLEANS","State":"LA","Zip":"70116","Descriptio":"4701 HOTELS (EXC CASINO HOTELS) & MOTELS","Address":"509 DAUPHINE ST"}},{"type":"Feature","geometry":{"type":"Point","coordinates":[-90.0694067018,29.9562772281]},"properties":{"Trade_Name":"CHATEAU LEMOYNE  ATTN: FINANCE DEPT:","City":"NEW ORLEANS","State":"LA","Zip":"70112","Descriptio":"4701 HOTELS (EXC CASINO HOTELS) & MOTELS","Address":"301 DAUPHINE ST"}},{"type":"Feature","geometry":{"type":"Point","coordinates":[-90.0575177408,29.9658432464]},"properties":{"Trade_Name":"CLAIBORNE MANSION (THE)","City":"NEW ORLEANS","State":"LA","Zip":"70116-1613","Descriptio":"4703 BED & BREAKFAST INNS","Address":"2111 DAUPHINE ST"}},{"type":"Feature","geometry":{"type":"Point","coordinates":[-90.0538023844,29.9654982605]},"properties":{"Trade_Name":"COLLINWOOD","City":"NEW ORLEANS","State":"LA","Zip":"70117","Descriptio":"4703 BED & BREAKFAST INNS","Address":"2408 DAUPHINE ST"}},{"type":"Feature","geometry":{"type":"Point","coordinates":[-90.0522307746,29.9660283405]},"properties":{"Trade_Name":"CREOLE INN RUE DAUPHINE","City":"NEW ORLEANS","State":"LA","Zip":"70117","Descriptio":"4703 BED & BREAKFAST INNS","Address":"2471 DAUPHINE ST"}},{"type":"Feature","geometry":{"type":"Point","coordinates":[-90.0683917227,29.9572939248]},"properties":{"Trade_Name":"DAUPHINE ORLEANS HOTEL","City":"NEW ORLEANS","State":"LA","Zip":"70112","Descriptio":"4701 HOTELS (EXC CASINO HOTELS) & MOTELS","Address":"415 DAUPHINE ST"}},{"type":"Feature","geometry":{"type":"Point","coordinates":[-90.0498154894,29.9656944651]},"properties":{"Trade_Name":"ENGINE 24 FIREHOUSE","City":"NEW ORLEANS","State":"LA","Zip":"70117","Descriptio":"4703 BED & BREAKFAST INNS","Address":"2711 DAUPHINE ST"}},{"type":"Feature","geometry":{"type":"Point","coordinates":[-90.0691538559,29.9567560771]},"properties":{"Trade_Name":"GRENOBLE HOUSE","City":"NEW ORLEANS","State":"LA","Zip":"70112-3129","Descriptio":"4701 HOTELS (EXC CASINO HOTELS) & MOTELS","Address":"329 DAUPHINE ST"}},{"type":"Feature","geometry":{"type":"Point","coordinates":[-90.0548404365,29.9654594574]},"properties":{"Trade_Name":"LA DAUPHINE","City":"NEW ORLEANS","State":"LA","Zip":"70117-8506","Descriptio":"4703 BED & BREAKFAST INNS","Address":"2316 DAUPHINE ST"}},{"type":"Feature","geometry":{"type":"Point","coordinates":[-90.0615374678,29.9652074381]},"properties":{"Trade_Name":"MAISON DUBOIS","City":"NEW ORLEANS","State":"LA","Zip":"70116-1924","Descriptio":"4702 ROOMING & BOARDING HOUSES","Address":"1419 DAUPHINE ST"}},{"type":"Feature","geometry":{"type":"Point","coordinates":[-90.068854245,29.9567621926]},"properties":{"Trade_Name":"TONY'S FRENCH QUARTER ROOMS","City":"NEW ORLEANS","State":"LA","Zip":"70112-3129","Descriptio":"4702 ROOMING & BOARDING HOUSES","Address":"335 DAUPHINE ST"}},{"type":"Feature","geometry":{"type":"Point","coordinates":[-90.0652003715,29.953922203]},"properties":{"Trade_Name":"BIENVILLE HOUSE MOTOR         HOTEL","City":"NEW ORLEANS","State":"LA","Zip":"70130-1024","Descriptio":"4701 HOTELS (EXC CASINO HOTELS) & MOTELS","Address":"320 DECATUR ST"}},{"type":"Feature","geometry":{"type":"Point","coordinates":[-90.0668558298,29.9523784117]},"properties":{"Trade_Name":"BLUEGREEN RESORTS MANAGEMENT","City":"NEW ORLEANS","State":"LA","Zip":"70130","Descriptio":"4701 HOTELS (EXC CASINO HOTELS) & MOTELS","Address":"115 DECATUR ST"}},{"type":"Feature","geometry":{"type":"Point","coordinates":[-90.0642823081,29.9552653502]},"properties":{"Trade_Name":"French Market Inn","City":"NEW ORLEANS","State":"LA","Zip":"70130","Descriptio":"4701 HOTELS (EXC CASINO HOTELS) & MOTELS","Address":"501 Decatur St"}},{"type":"Feature","geometry":{"type":"Point","coordinates":[-90.0642823081,29.9552653502]},"properties":{"Trade_Name":"HISTORIC FRENCH MARKET INN - HOTEL","City":"NEW ORLEANS","State":"LA","Zip":"70130-1027","Descriptio":"4701 HOTELS (EXC CASINO HOTELS) & MOTELS","Address":"501 DECATUR ST"}},{"type":"Feature","geometry":{"type":"Point","coordinates":[-90.0666186411,29.9526419772]},"properties":{"Trade_Name":"HOTEL CHATEAU DUPRE-HOTEL","City":"NEW ORLEANS","State":"LA","Zip":"70130","Descriptio":"4701 HOTELS (EXC CASINO HOTELS) & MOTELS","Address":"131 DECATUR ST"}},{"type":"Feature","geometry":{"type":"Point","coordinates":[-90.0518250642,29.9539089368]},"properties":{"Trade_Name":"BED AND BREAKFAST  ON THE POINT","City":"NEW ORLEANS","State":"LA","Zip":"70114","Descriptio":"4701 HOTELS (EXC CASINO HOTELS) & MOTELS","Address":"405 DELARONDE ST"}},{"type":"Feature","geometry":{"type":"Point","coordinates":[-90.0545036064,29.9522293739]},"properties":{"Trade_Name":"MAISON DELARONDE","City":"NEW ORLEANS","State":"LA","Zip":"70114-2325","Descriptio":"4703 BED & BREAKFAST INNS","Address":"145 DELARONDE ST"}},{"type":"Feature","geometry":{"type":"Point","coordinates":[-90.0908067997,29.9803057779]},"properties":{"Trade_Name":"THE LAUREL GUEST HOME","City":"NEW ORLEANS","State":"LA","Zip":"70119-3802","Descriptio":"4703 BED & BREAKFAST INNS","Address":"3626 DELGADO DR"}},{"type":"Feature","geometry":{"type":"Point","coordinates":[-90.0938232171,29.9307809097]},"properties":{"Trade_Name":"GLADSTONE RESTAURANT HOTEL LOUNGE","City":"NEW ORLEANS","State":"LA","Zip":"70115-5220","Descriptio":"4701 HOTELS (EXC CASINO HOTELS) & MOTELS","Address":"3435 DRYADES ST"}},{"type":"Feature","geometry":{"type":"Point","coordinates":[-90.0640348408,29.9599656767]},"properties":{"Trade_Name":"BISCUIT PALACE GUESTHOUSE","City":"NEW ORLEANS","State":"LA","Zip":"70116-3109","Descriptio":"4701 HOTELS (EXC CASINO HOTELS) & MOTELS","Address":"730 DUMAINE ST"}},{"type":"Feature","geometry":{"type":"Point","coordinates":[-90.0615992713,29.9587891979]},"properties":{"Trade_Name":"Rue Dumaine Guest House","City":"NEW ORLEANS","State":"LA","Zip":"70116","Descriptio":"4702 ROOMING & BOARDING HOUSES","Address":"517 Dumaine St"}},{"type":"Feature","geometry":{"type":"Point","coordinates":[-90.057165264,29.9672115572]},"properties":{"Trade_Name":"ELYSIAN FIELD INN","City":"NEW ORLEANS","State":"LA","Zip":"70117-8536","Descriptio":"4703 BED & BREAKFAST INNS","Address":"930 ELYSIAN FIELDS AVE"}},{"type":"Feature","geometry":{"type":"Point","coordinates":[-90.0571638346,29.9677428153]},"properties":{"Trade_Name":"ELYSIAN GUEST HOUSE","City":"NEW ORLEANS","State":"LA","Zip":"70117-8402","Descriptio":"4703 BED & BREAKFAST INNS","Address":"1008 ELYSIAN FIELDS AVE"}},{"type":"Feature","geometry":{"type":"Point","coordinates":[-90.0663982692,29.9680834308]},"properties":{"Trade_Name":"ANTEBELLUM GUEST HOUSE","City":"NEW ORLEANS","State":"LA","Zip":"70116-1836","Descriptio":"4703 BED & BREAKFAST INNS","Address":"1333 ESPLANADE AVE"}},{"type":"Feature","geometry":{"type":"Point","coordinates":[-90.0723207594,29.9724870556]},"properties":{"Trade_Name":"ASHTON'S BED & BREAKFAST","City":"NEW ORLEANS","State":"LA","Zip":"70116-1708","Descriptio":"4701 HOTELS (EXC CASINO HOTELS) & MOTELS","Address":"2023 ESPLANADE AVE"}},{"type":"Feature","geometry":{"type":"Point","coordinates":[-90.0655566679,29.9674935816]},"properties":{"Trade_Name":"CHATEAU ESPLANADE","City":"NEW ORLEANS","State":"LA","Zip":"70116-1947","Descriptio":"4701 HOTELS (EXC CASINO HOTELS) & MOTELS","Address":"1261 ESPLANADE AVE"}},{"type":"Feature","geometry":{"type":"Point","coordinates":[-90.0752319184,29.9735737891]},"properties":{"Trade_Name":"DEGAS HOUSE","City":"NEW ORLEANS","State":"LA","Zip":"70119-2502","Descriptio":"4703 BED & BREAKFAST INNS","Address":"2306 ESPLANADE AVE"}},{"type":"Feature","geometry":{"type":"Point","coordinates":[-90.0698523248,29.9707442529]},"properties":{"Trade_Name":"FIVE CONTINENTS B & B","City":"NEW ORLEANS","State":"LA","Zip":"70116","Descriptio":"4703 BED & BREAKFAST INNS","Address":"1731 ESPLANADE AVE"}},{"type":"Feature","geometry":{"type":"Point","coordinates":[-90.0714433531,29.971821211]},"properties":{"Trade_Name":"H H WHITNEY HOUSE","City":"NEW ORLEANS","State":"LA","Zip":"70116-1706","Descriptio":"4703 BED & BREAKFAST INNS","Address":"1923 ESPLANADE AVE"}},{"type":"Feature","geometry":{"type":"Point","coordinates":[-90.057034216,29.9617701944]},"properties":{"Trade_Name":"HOTEL DE LA MONNAIE OWNERS  ASSOCIATION INC","City":"NEW ORLEANS","State":"LA","Zip":"70116-2014","Descriptio":"4701 HOTELS (EXC CASINO HOTELS) & MOTELS","Address":"405 ESPLANADE AVE"}},{"type":"Feature","geometry":{"type":"Point","coordinates":[-90.0591221974,29.9632038784]},"properties":{"Trade_Name":"JEAN LAFITTE HOUSE","City":"NEW ORLEANS","State":"LA","Zip":"70116-2018","Descriptio":"4704 TRAVELER ACCOMMODATION, ALL OTH","Address":"613 ESPLANADE AVE"}},{"type":"Feature","geometry":{"type":"Point","coordinates":[-90.0743953126,29.9731377721]},"properties":{"Trade_Name":"LA BELLE ESPLANADE","City":"NEW ORLEANS","State":"LA","Zip":"70119","Descriptio":"4703 BED & BREAKFAST INNS","Address":"2216 ESPLANADE AVE"}},{"type":"Feature","geometry":{"type":"Point","coordinates":[-90.0713232943,29.9709849417]},"properties":{"Trade_Name":"LA RUE ESPLANADE","City":"NEW ORLEANS","State":"LA","Zip":"70116-7011","Descriptio":"4703 BED & BREAKFAST INNS","Address":"1834 ESPLANADE AVE"}},{"type":"Feature","geometry":{"type":"Point","coordinates":[-90.0593234816,29.9631888681]},"properties":{"Trade_Name":"LAMOTHE HOUSE","City":"NEW ORLEANS","State":"LA","Zip":"70130","Descriptio":"4701 HOTELS (EXC CASINO HOTELS) & MOTELS","Address":"621 ESPLANADE AVE"}},{"type":"Feature","geometry":{"type":"Point","coordinates":[-90.0586895747,29.9629074444]},"properties":{"Trade_Name":"LANAUX MANSION","City":"NEW ORLEANS","State":"LA","Zip":"70116-2016","Descriptio":"4703 BED & BREAKFAST INNS","Address":"547 ESPLANADE AVE"}},{"type":"Feature","geometry":{"type":"Point","coordinates":[-90.0623198705,29.9653032461]},"properties":{"Trade_Name":"MELROSE MANSION","City":"NEW ORLEANS","State":"LA","Zip":"70116","Descriptio":"4701 HOTELS (EXC CASINO HOTELS) & MOTELS","Address":"937 ESPLANADE AVE"}},{"type":"Feature","geometry":{"type":"Point","coordinates":[-90.0648904448,29.9671540974]},"properties":{"Trade_Name":"RATHBONE INN","City":"NEW ORLEANS","State":"LA","Zip":"70116-1947","Descriptio":"4701 HOTELS (EXC CASINO HOTELS) & MOTELS","Address":"1227 ESPLANADE AVE"}},{"type":"Feature","geometry":{"type":"Point","coordinates":[-90.0659114914,29.9669886363]},"properties":{"Trade_Name":"RATHBONE TOO","City":"NEW ORLEANS","State":"LA","Zip":"70116-1978","Descriptio":"4701 HOTELS (EXC CASINO HOTELS) & MOTELS","Address":"1244 ESPLANADE AVE"}},{"type":"Feature","geometry":{"type":"Point","coordinates":[-90.0747197759,29.9732396519]},"properties":{"Trade_Name":"THE ROSE","City":"NEW ORLEANS","State":"LA","Zip":"70119-2606","Descriptio":"4703 BED & BREAKFAST INNS","Address":"2232 ESPLANADE AVE"}},{"type":"Feature","geometry":{"type":"Point","coordinates":[-90.1160928597,29.9555797885]},"properties":{"Trade_Name":"KATHERINE B SENTER","City":"NEW ORLEANS","State":"LA","Zip":"70125-3447","Descriptio":"4703 BED & BREAKFAST INNS","Address":"43 FONTAINEBLEAU DR"}},{"type":"Feature","geometry":{"type":"Point","coordinates":[-90.0574244797,29.9631033894]},"properties":{"Trade_Name":"FESTIVA RESORTS","City":"NEW ORLEANS","State":"LA","Zip":"70116","Descriptio":"4701 HOTELS (EXC CASINO HOTELS) & MOTELS","Address":"519 FRENCHMEN ST"}},{"type":"Feature","geometry":{"type":"Point","coordinates":[-90.0574244797,29.9631033894]},"properties":{"Trade_Name":"FESTIVA TRAVEL SERVICES","City":"NEW ORLEANS","State":"LA","Zip":"70116","Descriptio":"4701 HOTELS (EXC CASINO HOTELS) & MOTELS","Address":"519 FRENCHMEN ST"}},{"type":"Feature","geometry":{"type":"Point","coordinates":[-90.057403234,29.9623303025]},"properties":{"Trade_Name":"FRENCHMEN HOTEL","City":"NEW ORLEANS","State":"LA","Zip":"70116","Descriptio":"4701 HOTELS (EXC CASINO HOTELS) & MOTELS","Address":"417 FRENCHMEN ST"}},{"type":"Feature","geometry":{"type":"Point","coordinates":[-90.0580991356,29.9651031211]},"properties":{"Trade_Name":"NONI'S NOLA ON FRENCHMAN","City":"NEW ORLEANS","State":"LA","Zip":"70116","Descriptio":"4703 BED & BREAKFAST INNS","Address":"726 FRENCHMEN ST"}},{"type":"Feature","geometry":{"type":"Point","coordinates":[-90.0578781382,29.9641482014]},"properties":{"Trade_Name":"SUITE JAZZ ON FRENCHMEN","City":"NEW ORLEANS","State":"LA","Zip":"70116","Descriptio":"4703 BED & BREAKFAST INNS","Address":"628 FRENCHMEN ST"}},{"type":"Feature","geometry":{"type":"Point","coordinates":[-90.1011944401,29.9331476794]},"properties":{"Trade_Name":"DUSTY MANSION B&B (THE)","City":"NEW ORLEANS","State":"LA","Zip":"70115-5439","Descriptio":"4703 BED & BREAKFAST INNS","Address":"2231 GENERAL PERSHING ST"}},{"type":"Feature","geometry":{"type":"Point","coordinates":[-90.0635436971,29.9635472062]},"properties":{"Trade_Name":"BOUGAINVILLEA HOUSE","City":"NEW ORLEANS","State":"LA","Zip":"70116","Descriptio":"4703 BED & BREAKFAST INNS","Address":"924 GOVERNOR NICHOLLS ST"}},{"type":"Feature","geometry":{"type":"Point","coordinates":[-90.0665290965,29.9661090298]},"properties":{"Trade_Name":"MONROSE ROW B & B","City":"NEW ORLEANS","State":"LA","Zip":"70116-2323","Descriptio":"4703 BED & BREAKFAST INNS","Address":"1303 GOVERNOR NICHOLLS ST"}},{"type":"Feature","geometry":{"type":"Point","coordinates":[-90.0659589749,29.9655752575]},"properties":{"Trade_Name":"PENELOPE'S BED & BREAKFAST","City":"NEW ORLEANS","State":"LA","Zip":"70116-2321","Descriptio":"4703 BED & BREAKFAST INNS","Address":"1211 GOVERNOR NICHOLLS ST"}},{"type":"Feature","geometry":{"type":"Point","coordinates":[-90.0718639888,29.9523156317]},"properties":{"Trade_Name":"HILTON GARDEN INN FRENCH QUARTER/CBD","City":"NEW ORLEANS","State":"LA","Zip":"70112","Descriptio":"4701 HOTELS (EXC CASINO HOTELS) & MOTELS","Address":"821 GRAVIER ST"}},{"type":"Feature","geometry":{"type":"Point","coordinates":[-90.0682133498,29.9508461037]},"properties":{"Trade_Name":"LOFT 523","City":"NEW ORLEANS","State":"LA","Zip":"70130-2701","Descriptio":"4701 HOTELS (EXC CASINO HOTELS) & MOTELS","Address":"523 GRAVIER ST"}},{"type":"Feature","geometry":{"type":"Point","coordinates":[-90.0684998124,29.9509613746]},"properties":{"Trade_Name":"OMNI ROYAL CRESCENT HOTEL","City":"NEW ORLEANS","State":"LA","Zip":"70130","Descriptio":"4701 HOTELS (EXC CASINO HOTELS) & MOTELS","Address":"535 GRAVIER ST"}},{"type":"Feature","geometry":{"type":"Point","coordinates":[-90.0662605464,29.9497894305]},"properties":{"Trade_Name":"WINDSOR COURT HOTEL","City":"NEW ORLEANS","State":"LA","Zip":"70130","Descriptio":"4701 HOTELS (EXC CASINO HOTELS) & MOTELS","Address":"300 GRAVIER ST"}},{"type":"Feature","geometry":{"type":"Point","coordinates":[-90.1267050103,29.9516083683]},"properties":{"Trade_Name":"CHEZ ELLIE MARIE","City":"NEW ORLEANS","State":"LA","Zip":"70118-2843","Descriptio":"4703 BED & BREAKFAST INNS","Address":"8137 GREEN ST"}},{"type":"Feature","geometry":{"type":"Point","coordinates":[-90.0870893568,29.925398955]},"properties":{"Trade_Name":"MAISON LAFAYETTE","City":"NEW ORLEANS","State":"LA","Zip":"70115-3422","Descriptio":"4703 BED & BREAKFAST INNS","Address":"1221 HARMONY ST"}},{"type":"Feature","geometry":{"type":"Point","coordinates":[-90.0328413044,29.9475696968]},"properties":{"Trade_Name":"FEDERAL CITY INN & SUITES","City":"NEW ORLEANS","State":"LA","Zip":"70142","Descriptio":"4701 HOTELS (EXC CASINO HOTELS) & MOTELS","Address":"740 HEBERT DR"}},{"type":"Feature","geometry":{"type":"Point","coordinates":[-89.9918118124,30.0292134376]},"properties":{"Trade_Name":"QUALITY INN & SUITES","City":"NEW ORLEANS","State":"LA","Zip":"70127","Descriptio":"4701 HOTELS (EXC CASINO HOTELS) & MOTELS","Address":"8400 I 10 E"}},{"type":"Feature","geometry":{"type":"Point","coordinates":[-89.9540389959,30.0498996122]},"properties":{"Trade_Name":"BAYMONT INN & SUITES","City":"NEW ORLEANS","State":"LA","Zip":"70128","Descriptio":"4701 HOTELS (EXC CASINO HOTELS) & MOTELS","Address":"12340 I 10 E SERVICE RD"}},{"type":"Feature","geometry":{"type":"Point","coordinates":[-89.9719404408,30.0379258322]},"properties":{"Trade_Name":"BEST WESTERN AVALON HOTEL","City":"NEW ORLEANS","State":"LA","Zip":"70127","Descriptio":"4701 HOTELS (EXC CASINO HOTELS) & MOTELS","Address":"10100 I 10 E SERVICE RD"}},{"type":"Feature","geometry":{"type":"Point","coordinates":[-89.9540389959,30.0498996122]},"properties":{"Trade_Name":"La Quinta Inn & Suites","City":"NEW ORLEANS","State":"LA","Zip":"70128","Descriptio":"4701 HOTELS (EXC CASINO HOTELS) & MOTELS","Address":"12340 I 10 E Service RD"}},{"type":"Feature","geometry":{"type":"Point","coordinates":[-89.9545405873,30.0496412156]},"properties":{"Trade_Name":"MOTEL 6 # 1429 - (Hotel)","City":"NEW ORLEANS","State":"LA","Zip":"70128-3503","Descriptio":"4701 HOTELS (EXC CASINO HOTELS) & MOTELS","Address":"12330 I 10 E SERVICE RD"}},{"type":"Feature","geometry":{"type":"Point","coordinates":[-89.9545405873,30.0496412156]},"properties":{"Trade_Name":"STUDIO 6 #6000","City":"NEW ORLEANS","State":"LA","Zip":"70128-3503","Descriptio":"4701 HOTELS (EXC CASINO HOTELS) & MOTELS","Address":"12330 I 10 E SERVICE RD"}},{"type":"Feature","geometry":{"type":"Point","coordinates":[-89.9918118124,30.0292134376]},"properties":{"Trade_Name":"RODEWAY IN & SUITES","City":"NEW ORLEANS","State":"LA","Zip":"70127","Descriptio":"4701 HOTELS (EXC CASINO HOTELS) & MOTELS","Address":"8400 I 10 SERVICE RD"}},{"type":"Feature","geometry":{"type":"Point","coordinates":[-89.9734089716,30.0368230821]},"properties":{"Trade_Name":"DAYS INN","City":"NEW ORLEANS","State":"LA","Zip":"70127","Descriptio":"4701 HOTELS (EXC CASINO HOTELS) & MOTELS","Address":"10020 I 10 W SERVICE RD"}},{"type":"Feature","geometry":{"type":"Point","coordinates":[-90.0710971362,29.9556076458]},"properties":{"Trade_Name":"COURTYARD NEW ORLEANS DOWNTOWN/IBERVILLE","City":"NEW ORLEANS","State":"LA","Zip":"70130","Descriptio":"4701 HOTELS (EXC CASINO HOTELS) & MOTELS","Address":"910 IBERVILLE ST"}},{"type":"Feature","geometry":{"type":"Point","coordinates":[-90.0693051369,29.9547072325]},"properties":{"Trade_Name":"HYATT FRENCH QUARTER","City":"NEW ORLEANS","State":"LA","Zip":"70112","Descriptio":"4701 HOTELS (EXC CASINO HOTELS) & MOTELS","Address":"800 IBERVILLE ST"}},{"type":"Feature","geometry":{"type":"Point","coordinates":[-90.0798386072,29.9622560936]},"properties":{"Trade_Name":"JEFF DAVIS","City":"NEW ORLEANS","State":"LA","Zip":"70112-3332","Descriptio":"4702 ROOMING & BOARDING HOUSES","Address":"2011 IBERVILLE ST"}},{"type":"Feature","geometry":{"type":"Point","coordinates":[-90.085432158,29.9660532772]},"properties":{"Trade_Name":"LUCKY INN","City":"New Orleans","State":"LA","Zip":"70119","Descriptio":"4701 HOTELS (EXC CASINO HOTELS) & MOTELS","Address":"2625 IBERVILLE ST"}},{"type":"Feature","geometry":{"type":"Point","coordinates":[-90.0707872101,29.9552264986]},"properties":{"Trade_Name":"MAISON ORLEANS","City":"NEW ORLEANS","State":"LA","Zip":"70112-3134","Descriptio":"4701 HOTELS (EXC CASINO HOTELS) & MOTELS","Address":"904 IBERVILLE ST"}},{"type":"Feature","geometry":{"type":"Point","coordinates":[-90.0707872101,29.9552264986]},"properties":{"Trade_Name":"THE IBERVILLE SUITES","City":"NEW ORLEANS","State":"LA","Zip":"70112-3134","Descriptio":"4701 HOTELS (EXC CASINO HOTELS) & MOTELS","Address":"910 IBERVILLE ST"}},{"type":"Feature","geometry":{"type":"Point","coordinates":[-90.0642285952,29.9513805486]},"properties":{"Trade_Name":"WESTIN CANAL PLACE HOTEL","City":"NEW ORLEANS","State":"LA","Zip":"70130","Descriptio":"4701 HOTELS (EXC CASINO HOTELS) & MOTELS","Address":"100 IBERVILLE ST"}},{"type":"Feature","geometry":{"type":"Point","coordinates":[-90.0953554873,29.9679855552]},"properties":{"Trade_Name":"ENTROPY ROOMS","City":"NEW ORLEANS","State":"LA","Zip":"70119-6232","Descriptio":"4702 ROOMING & BOARDING HOUSES","Address":"300 JEFFERSON DAVIS PKWY S"}},{"type":"Feature","geometry":{"type":"Point","coordinates":[-90.0662508355,29.9444972422]},"properties":{"Trade_Name":"COURTYARD BY MARRIOTT #1MK-[H/P]","City":"NEW ORLEANS","State":"LA","Zip":"70130","Descriptio":"4701 HOTELS (EXC CASINO HOTELS) & MOTELS","Address":"300 JULIA ST"}},{"type":"Feature","geometry":{"type":"Point","coordinates":[-90.0662850822,29.9447981523]},"properties":{"Trade_Name":"EMBASSY SUITES CONVENTION HOTEL","City":"NEW ORLEANS","State":"LA","Zip":"70130","Descriptio":"4701 HOTELS (EXC CASINO HOTELS) & MOTELS","Address":"315 JULIA ST"}},{"type":"Feature","geometry":{"type":"Point","coordinates":[-90.0617303377,29.9656258245]},"properties":{"Trade_Name":"KERLEREC HOUSE","City":"NEW ORLEANS","State":"LA","Zip":"70116-1929","Descriptio":"4703 BED & BREAKFAST INNS","Address":"928 KERLEREC ST"}},{"type":"Feature","geometry":{"type":"Point","coordinates":[-90.0587163797,29.9634995837]},"properties":{"Trade_Name":"LA MAISON FAUBOURG MARIGNY    GUEST HOUSE","City":"NEW ORLEANS","State":"LA","Zip":"70116-2004","Descriptio":"4701 HOTELS (EXC CASINO HOTELS) & MOTELS","Address":"608 KERLEREC ST"}},{"type":"Feature","geometry":{"type":"Point","coordinates":[-90.0622232495,29.9665475732]},"properties":{"Trade_Name":"MAISON DE LAGNIAPPE","City":"NEW ORLEANS","State":"LA","Zip":"70116","Descriptio":"4703 BED & BREAKFAST INNS","Address":"1021 KERLEREC ST"}},{"type":"Feature","geometry":{"type":"Point","coordinates":[-90.103838, 30.025954]},"properties":{"Trade_Name":"CARLSON HOSPITALITY GROUP INC","City":"New Orleans","State":"LA","Zip":"","Descriptio":"4701 HOTELS (EXC CASINO HOTELS) & MOTELS","Address":"701 LAKESHORE PKWY"}},{"type":"Feature","geometry":{"type":"Point","coordinates":[-90.092225416,29.9680196913]},"properties":{"Trade_Name":"INDIA HOUSE BACKPACKERS HOTEL","City":"NEW ORLEANS","State":"LA","Zip":"70119-6214","Descriptio":"4701 HOTELS (EXC CASINO HOTELS) & MOTELS","Address":"124 LOPEZ ST S"}},{"type":"Feature","geometry":{"type":"Point","coordinates":[-90.075058851,29.9531594955]},"properties":{"Trade_Name":"HOLIDAY INN DTN SUPERDOME HTM","City":"NEW ORLEANS","State":"LA","Zip":"70112","Descriptio":"4701 HOTELS (EXC CASINO HOTELS) & MOTELS","Address":"330 LOYOLA AVE"}},{"type":"Feature","geometry":{"type":"Point","coordinates":[-90.0763993582,29.9495309778]},"properties":{"Trade_Name":"Hyatt Regency New Orleans-","City":"NEW ORLEANS","State":"LA","Zip":"70113","Descriptio":"4701 HOTELS (EXC CASINO HOTELS) & MOTELS","Address":"601 Loyola Ave"}},{"type":"Feature","geometry":{"type":"Point","coordinates":[-90.0673107041,29.9513331759]},"properties":{"Trade_Name":"BEST WEST ST CHRIS HOTEL","City":"NEW ORLEANS","State":"LA","Zip":"70130","Descriptio":"4701 HOTELS (EXC CASINO HOTELS) & MOTELS","Address":"114 MAGAZINE ST"}},{"type":"Feature","geometry":{"type":"Point","coordinates":[-90.0722168051,29.9347533081]},"properties":{"Trade_Name":"CARRIE'S COOL PROPERTIES","City":"NEW ORLEANS","State":"LA","Zip":"70130","Descriptio":"4703 BED & BREAKFAST INNS","Address":"1466 MAGAZINE ST"}},{"type":"Feature","geometry":{"type":"Point","coordinates":[-90.0678987007,29.9501983057]},"properties":{"Trade_Name":"COUNTRY INN & SUITES BY CARLSON, NEW ORLEANS FRENC","City":"NEW ORLEANS","State":"LA","Zip":"70130","Descriptio":"4701 HOTELS (EXC CASINO HOTELS) & MOTELS","Address":"315 MAGAZINE ST"}},{"type":"Feature","geometry":{"type":"Point","coordinates":[-90.0796054208,29.9276635809]},"properties":{"Trade_Name":"GARDEN DISTRICT B & B","City":"NEW ORLEANS","State":"LA","Zip":"70130-5604","Descriptio":"4703 BED & BREAKFAST INNS","Address":"2418 MAGAZINE ST"}},{"type":"Feature","geometry":{"type":"Point","coordinates":[-90.0722168051,29.9347533081]},"properties":{"Trade_Name":"MCKENDRICK BREAUX HOUSE","City":"NEW ORLEANS","State":"LA","Zip":"70130-4239","Descriptio":"4703 BED & BREAKFAST INNS","Address":"1466 MAGAZINE ST"}},{"type":"Feature","geometry":{"type":"Point","coordinates":[-90.0727323774,29.9339234729]},"properties":{"Trade_Name":"ST VINCENT'S GUEST HOUSE","City":"NEW ORLEANS","State":"LA","Zip":"70130-4723","Descriptio":"4701 HOTELS (EXC CASINO HOTELS) & MOTELS","Address":"1507 MAGAZINE ST"}},{"type":"Feature","geometry":{"type":"Point","coordinates":[-90.0676676532,29.9500862515]},"properties":{"Trade_Name":"ST. JAMES HOTEL","City":"NEW ORLEANS","State":"LA","Zip":"70130","Descriptio":"4701 HOTELS (EXC CASINO HOTELS) & MOTELS","Address":"330 MAGAZINE ST"}},{"type":"Feature","geometry":{"type":"Point","coordinates":[-90.0722990216,29.9353074737]},"properties":{"Trade_Name":"TERRELL HOUSE","City":"NEW ORLEANS","State":"LA","Zip":"70130-4238","Descriptio":"4703 BED & BREAKFAST INNS","Address":"1441 MAGAZINE ST"}},{"type":"Feature","geometry":{"type":"Point","coordinates":[-90.0709876476,29.9388794139]},"properties":{"Trade_Name":"THE GREEN HOUSE INN","City":"NEW ORLEANS","State":"LA","Zip":"70130","Descriptio":"4703 BED & BREAKFAST INNS","Address":"1212 MAGAZINE ST"}},{"type":"Feature","geometry":{"type":"Point","coordinates":[-90.0540351155,29.9655239973]},"properties":{"Trade_Name":"735 MANDEVILLE","City":"NEW ORLEANS","State":"LA","Zip":"70117","Descriptio":"4703 BED & BREAKFAST INNS","Address":"735 MANDEVILLE ST"}},{"type":"Feature","geometry":{"type":"Point","coordinates":[-90.0539494323,29.9662071088]},"properties":{"Trade_Name":"SUNBURST INN","City":"NEW ORLEANS","State":"LA","Zip":"70117-8519","Descriptio":"4703 BED & BREAKFAST INNS","Address":"819 MANDEVILLE ST"}},{"type":"Feature","geometry":{"type":"Point","coordinates":[-90.0991592472,29.9292663432]},"properties":{"Trade_Name":"AIRYN MONET","City":"NEW ORLEANS","State":"LA","Zip":"70115-5414","Descriptio":"4703 BED & BREAKFAST INNS","Address":"1816 MARENGO ST"}},{"type":"Feature","geometry":{"type":"Point","coordinates":[-90.0984512214,29.9286804111]},"properties":{"Trade_Name":"SOUTHERN COMFORT BED & BREAKFAST","City":"NEW ORLEANS","State":"LA","Zip":"70115-4729","Descriptio":"4703 BED & BREAKFAST INNS","Address":"1739 MARENGO ST"}},{"type":"Feature","geometry":{"type":"Point","coordinates":[-90.0724583224,29.9408131999]},"properties":{"Trade_Name":"ROVELLOS","City":"NEW ORLEANS","State":"LA","Zip":"70130","Descriptio":"4703 BED & BREAKFAST INNS","Address":"1133 MARGARET PL"}},{"type":"Feature","geometry":{"type":"Point","coordinates":[-90.0549649566,29.9651460287]},"properties":{"Trade_Name":"723 MARIGNY","City":"NEW ORLEANS","State":"LA","Zip":"70117","Descriptio":"4703 BED & BREAKFAST INNS","Address":"723 MARIGNY ST"}},{"type":"Feature","geometry":{"type":"Point","coordinates":[-90.0551496589,29.9672791725]},"properties":{"Trade_Name":"929 MARIGNY PAINTED LADY'S INN","City":"NEW ORLEANS","State":"LA","Zip":"70117-8539","Descriptio":"4703 BED & BREAKFAST INNS","Address":"929 MARIGNY ST"}},{"type":"Feature","geometry":{"type":"Point","coordinates":[-90.055419783,29.9640474803]},"properties":{"Trade_Name":"A CRESCENT CITY GUEST","City":"NEW ORLEANS","State":"LA","Zip":"70117-8522","Descriptio":"4703 BED & BREAKFAST INNS","Address":"612 MARIGNY ST"}},{"type":"Feature","geometry":{"type":"Point","coordinates":[-90.055273958,29.9677344344]},"properties":{"Trade_Name":"OLDE TOWN INN","City":"NEW ORLEANS","State":"LA","Zip":"70117","Descriptio":"4701 HOTELS (EXC CASINO HOTELS) & MOTELS","Address":"1001 MARIGNY ST"}},{"type":"Feature","geometry":{"type":"Point","coordinates":[-90.0548746906,29.9642770371]},"properties":{"Trade_Name":"RIVER HOUSE NEW ORLEANS","City":"NEW ORLEANS","State":"LA","Zip":"70117","Descriptio":"4703 BED & BREAKFAST INNS","Address":"625 MARIGNY ST"}},{"type":"Feature","geometry":{"type":"Point","coordinates":[-90.0972582181,29.9515760897]},"properties":{"Trade_Name":"CRESCENT PALMS MOTEL(HOTEL ACCT)","City":"NEW ORLEANS","State":"LA","Zip":"70125","Descriptio":"4701 HOTELS (EXC CASINO HOTELS) & MOTELS","Address":"3923 MARTIN LUTHER KING JR BLVD"}},{"type":"Feature","geometry":{"type":"Point","coordinates":[-90.0352524113,29.9634863345]},"properties":{"Trade_Name":"CAMELLIA MANOR","City":"NEW ORLEANS","State":"LA","Zip":"70117","Descriptio":"4703 BED & BREAKFAST INNS","Address":"all MAZANT ST"}},{"type":"Feature","geometry":{"type":"Point","coordinates":[-90.0352888574,29.961626392]},"properties":{"Trade_Name":"MAISON MAZANT","City":"NEW ORLEANS","State":"LA","Zip":"70117","Descriptio":"4703 BED & BREAKFAST INNS","Address":"721 MAZANT ST"}},{"type":"Feature","geometry":{"type":"Point","coordinates":[-90.0867641101,29.9805281234]},"properties":{"Trade_Name":"BAYOU ST JOHN BED & BREAKFAST","City":"NEW ORLEANS","State":"LA","Zip":"70119-2903","Descriptio":"4703 BED & BREAKFAST INNS","Address":"1318 MOSS ST"}},{"type":"Feature","geometry":{"type":"Point","coordinates":[-90.1040124592,29.9415555373]},"properties":{"Trade_Name":"MARCELIN'S ON NAPOLEON","City":"NEW ORLEANS","State":"LA","Zip":"70125","Descriptio":"4703 BED & BREAKFAST INNS","Address":"3110 NAPOLEON AVE"}},{"type":"Feature","geometry":{"type":"Point","coordinates":[-90.0731959894,29.9535450204]},"properties":{"Trade_Name":"QUALITY INN & SUITES   DOWNTOWN N O","City":"NEW ORLEANS","State":"LA","Zip":"70112-1806","Descriptio":"4701 HOTELS (EXC CASINO HOTELS) & MOTELS","Address":"210 OKEEFE AVE"}},{"type":"Feature","geometry":{"type":"Point","coordinates":[-90.0736029897,29.9517746002]},"properties":{"Trade_Name":"O'KEEFE PLAZA HOTEL","City":"NEW ORLEANS","State":"LA","Zip":"70112","Descriptio":"4701 HOTELS (EXC CASINO HOTELS) & MOTELS","Address":"334 OKEEFE ST"}},{"type":"Feature","geometry":{"type":"Point","coordinates":[-89.9770305372,30.0158063489]},"properties":{"Trade_Name":"WEBBER'S MOTEL","City":"NEW ORLEANS","State":"LA","Zip":"70127-4138","Descriptio":"4701 HOTELS (EXC CASINO HOTELS) & MOTELS","Address":"9300 OLD CHEF MENTEUR HWY"}},{"type":"Feature","geometry":{"type":"Point","coordinates":[-90.0388945864,30.0024154342]},"properties":{"Trade_Name":"Motel 6 -HOTEL-","City":"NEW ORLEANS","State":"LA","Zip":"70126","Descriptio":"4701 HOTELS (EXC CASINO HOTELS) & MOTELS","Address":"4200 Old Gentilly Rd"}},{"type":"Feature","geometry":{"type":"Point","coordinates":[-90.0499033429,29.9541346388]},"properties":{"Trade_Name":"LA MAISON DE LA MUSIQUE","City":"NEW ORLEANS","State":"LA","Zip":"70114","Descriptio":"4703 BED & BREAKFAST INNS","Address":"210 OLIVIER ST"}},{"type":"Feature","geometry":{"type":"Point","coordinates":[-90.0647611026,29.9590161911]},"properties":{"Trade_Name":"BOURBON ORLEANS HOTEL","City":"NEW ORLEANS","State":"LA","Zip":"70116","Descriptio":"4701 HOTELS (EXC CASINO HOTELS) & MOTELS","Address":"717 ORLEANS AVE"}},{"type":"Feature","geometry":{"type":"Point","coordinates":[-90.0754729462,29.9661708887]},"properties":{"Trade_Name":"R & B ROOMS","City":"NEW ORLEANS","State":"LA","Zip":"70116-2827","Descriptio":"4702 ROOMING & BOARDING HOUSES","Address":"1931 ORLEANS AVE"}},{"type":"Feature","geometry":{"type":"Point","coordinates":[-90.0603832804,29.9659564191]},"properties":{"Trade_Name":"LITTLE EAZY BED & BREAKFAST","City":"NEW ORLEANS","State":"LA","Zip":"70116","Descriptio":"4703 BED & BREAKFAST INNS","Address":"1526 PAUGER ST"}},{"type":"Feature","geometry":{"type":"Point","coordinates":[-90.0600144762,29.9647311224]},"properties":{"Trade_Name":"MENTONE BED & BREAKFAST","City":"NEW ORLEANS","State":"LA","Zip":"70116-1600","Descriptio":"4703 BED & BREAKFAST INNS","Address":"1437 PAUGER ST"}},{"type":"Feature","geometry":{"type":"Point","coordinates":[-90.05242072,29.9522812374]},"properties":{"Trade_Name":"HOUSE OF THE RISING SUN","City":"NEW ORLEANS","State":"LA","Zip":"70114-2347","Descriptio":"4703 BED & BREAKFAST INNS","Address":"335 PELICAN AVE"}},{"type":"Feature","geometry":{"type":"Point","coordinates":[-90.0485740022,29.9533939411]},"properties":{"Trade_Name":"KBD & ASSOCIATES","City":"NEW ORLEANS","State":"LA","Zip":"70114","Descriptio":"4703 BED & BREAKFAST INNS","Address":"712 PELICAN AVE"}},{"type":"Feature","geometry":{"type":"Point","coordinates":[-90.0956237194,29.9275527311]},"properties":{"Trade_Name":"TESSIER HOUSE","City":"NEW ORLEANS","State":"LA","Zip":"70115-4628","Descriptio":"4703 BED & BREAKFAST INNS","Address":"1617 PENISTON ST"}},{"type":"Feature","geometry":{"type":"Point","coordinates":[-90.0989374358,29.9247399858]},"properties":{"Trade_Name":"MAISON PERRIER","City":"NEW ORLEANS","State":"LA","Zip":"70115-3826","Descriptio":"4703 BED & BREAKFAST INNS","Address":"4117 PERRIER ST"}},{"type":"Feature","geometry":{"type":"Point","coordinates":[-90.0659548056,29.9416896015]},"properties":{"Trade_Name":"HG New Orleans Convention Center","City":"NEW ORLEANS","State":"LA","Zip":"70130","Descriptio":"4701 HOTELS (EXC CASINO HOTELS) & MOTELS","Address":"1001 S Peters St"}},{"type":"Feature","geometry":{"type":"Point","coordinates":[-90.0997635732,29.9732518595]},"properties":{"Trade_Name":"1896 O'MALLEY HOUSE","City":"NEW ORLEANS","State":"LA","Zip":"70119-6033","Descriptio":"4701 HOTELS (EXC CASINO HOTELS) & MOTELS","Address":"120 S PIERCE ST"}},{"type":"Feature","geometry":{"type":"Point","coordinates":[-90.120249059,29.9274236283]},"properties":{"Trade_Name":"AUDUBON PARK HOUSE","City":"NEW ORLEANS","State":"LA","Zip":"70118-6011","Descriptio":"4703 BED & BREAKFAST INNS","Address":"6022 PITT ST"}},{"type":"Feature","geometry":{"type":"Point","coordinates":[-90.0320139523,29.9622053476]},"properties":{"Trade_Name":"LOOKOUT INN NEW ORLEANS","City":"NEW ORLEANS","State":"LA","Zip":"70117","Descriptio":"4701 HOTELS (EXC CASINO HOTELS) & MOTELS","Address":"833 POLAND AVE"}},{"type":"Feature","geometry":{"type":"Point","coordinates":[-90.1148370235,30.0205628835]},"properties":{"Trade_Name":"ROSE MANOR","City":"NEW ORLEANS","State":"LA","Zip":"70124-2408","Descriptio":"4701 HOTELS (EXC CASINO HOTELS) & MOTELS","Address":"7214 PONTCHARTRAIN BLVD"}},{"type":"Feature","geometry":{"type":"Point","coordinates":[-90.0495170647,29.9682304556]},"properties":{"Trade_Name":"THE BEE HOUSE","City":"NEW ORLEANS","State":"LA","Zip":"70117","Descriptio":"4703 BED & BREAKFAST INNS","Address":"1028 PORT ST"}},{"type":"Feature","geometry":{"type":"Point","coordinates":[-90.0723238513,29.9497518057]},"properties":{"Trade_Name":"DRURY INN NEW ORLEANS","City":"NEW ORLEANS","State":"LA","Zip":"70112","Descriptio":"4701 HOTELS (EXC CASINO HOTELS) & MOTELS","Address":"820 POYDRAS ST"}},{"type":"Feature","geometry":{"type":"Point","coordinates":[-90.0632826034,29.9477244433]},"properties":{"Trade_Name":"HILTON N O RIVERSIDE HOTEL","City":"NEW ORLEANS","State":"LA","Zip":"70130","Descriptio":"4701 HOTELS (EXC CASINO HOTELS) & MOTELS","Address":"2 POYDRAS ST"}},{"type":"Feature","geometry":{"type":"Point","coordinates":[-90.0731914544,29.9504171086]},"properties":{"Trade_Name":"HOMEWOOD SUITES - NEW ORLEANS","City":"NEW ORLEANS","State":"LA","Zip":"70112","Descriptio":"4701 HOTELS (EXC CASINO HOTELS) & MOTELS","Address":"901 POYDRAS ST"}},{"type":"Feature","geometry":{"type":"Point","coordinates":[-90.0728310055,29.9502850022]},"properties":{"Trade_Name":"LE PAVILLON HOTEL","City":"NEW ORLEANS","State":"LA","Zip":"70112","Descriptio":"4701 HOTELS (EXC CASINO HOTELS) & MOTELS","Address":"833 POYDRAS ST"}},{"type":"Feature","geometry":{"type":"Point","coordinates":[-90.0661658485,29.9481438036]},"properties":{"Trade_Name":"LOEWS NEW ORLEANS HOTEL","City":"NEW ORLEANS","State":"LA","Zip":"70130","Descriptio":"4701 HOTELS (EXC CASINO HOTELS) & MOTELS","Address":"300 POYDRAS ST"}},{"type":"Feature","geometry":{"type":"Point","coordinates":[-90.0661908446,29.9489457074]},"properties":{"Trade_Name":"W NEW ORLEANS HOTEL","City":"NEW ORLEANS","State":"LA","Zip":"70130","Descriptio":"4701 HOTELS (EXC CASINO HOTELS) & MOTELS","Address":"333 POYDRAS ST"}},{"type":"Feature","geometry":{"type":"Point","coordinates":[-90.0697296145,29.9491652728]},"properties":{"Trade_Name":"WHITNEY HOTEL","City":"NEW ORLEANS","State":"LA","Zip":"70130","Descriptio":"4701 HOTELS (EXC CASINO HOTELS) & MOTELS","Address":"610 POYDRAS ST"}},{"type":"Feature","geometry":{"type":"Point","coordinates":[-90.0734876531,29.969096123]},"properties":{"Trade_Name":"M R V HOTEL","City":"NEW ORLEANS","State":"LA","Zip":"70116-2143","Descriptio":"4704 TRAVELER ACCOMMODATION, ALL OTH","Address":"1100 N PRIEUR ST"}},{"type":"Feature","geometry":{"type":"Point","coordinates":[-90.0734876531,29.969096123]},"properties":{"Trade_Name":"THE TREME INN","City":"NEW ORLEANS","State":"LA","Zip":"70116","Descriptio":"4704 TRAVELER ACCOMMODATION, ALL OTH","Address":"1100 N PRIEUR ST"}},{"type":"Feature","geometry":{"type":"Point","coordinates":[-90.0739703983,29.9387540857]},"properties":{"Trade_Name":"1415 CREOLE GARDENS","City":"NEW ORLEANS","State":"LA","Zip":"70130-4413","Descriptio":"4701 HOTELS (EXC CASINO HOTELS) & MOTELS","Address":"1415 PRYTANIA ST"}},{"type":"Feature","geometry":{"type":"Point","coordinates":[-90.074295978,29.9377991683]},"properties":{"Trade_Name":"FAIRCHILD HOUSE","City":"NEW ORLEANS","State":"LA","Zip":"70130-4416","Descriptio":"4701 HOTELS (EXC CASINO HOTELS) & MOTELS","Address":"1518 PRYTANIA ST"}},{"type":"Feature","geometry":{"type":"Point","coordinates":[-90.0786747431,29.9338375957]},"properties":{"Trade_Name":"HENRY HOWARD HOUSE","City":"NEW ORLEANS","State":"LA","Zip":"70130","Descriptio":"4701 HOTELS (EXC CASINO HOTELS) & MOTELS","Address":"2041 PRYTANIA ST"}},{"type":"Feature","geometry":{"type":"Point","coordinates":[-90.0793093869,29.9332932009]},"properties":{"Trade_Name":"MAGNOLIA MANSION","City":"NEW ORLEANS","State":"LA","Zip":"70130-5330","Descriptio":"4701 HOTELS (EXC CASINO HOTELS) & MOTELS","Address":"2127 PRYTANIA ST"}},{"type":"Feature","geometry":{"type":"Point","coordinates":[-90.0725905642,29.940886637]},"properties":{"Trade_Name":"MARGARET GARDENS INN","City":"NEW ORLEANS","State":"LA","Zip":"70130-4311","Descriptio":"4703 BED & BREAKFAST INNS","Address":"1133 PRYTANIA ST"}},{"type":"Feature","geometry":{"type":"Point","coordinates":[-90.0754476382,29.9363341923]},"properties":{"Trade_Name":"PARISIAN COURTYARD INN","City":"NEW ORLEANS","State":"LA","Zip":"70130-5218","Descriptio":"4703 BED & BREAKFAST INNS","Address":"1726 PRYTANIA ST"}},{"type":"Feature","geometry":{"type":"Point","coordinates":[-90.0746339249,29.9379459671]},"properties":{"Trade_Name":"PRYTANIA PARK HOTEL","City":"NEW ORLEANS","State":"LA","Zip":"70130-4415","Descriptio":"4701 HOTELS (EXC CASINO HOTELS) & MOTELS","Address":"1525 PRYTANIA ST"}},{"type":"Feature","geometry":{"type":"Point","coordinates":[-90.0758003396,29.9358813662]},"properties":{"Trade_Name":"ST CHARLES GUEST HOUSE","City":"NEW ORLEANS","State":"LA","Zip":"70130-5261","Descriptio":"4703 BED & BREAKFAST INNS","Address":"1748 PRYTANIA ST"}},{"type":"Feature","geometry":{"type":"Point","coordinates":[-90.0842064541,29.9304289888]},"properties":{"Trade_Name":"Sully Manision Bed & Breakfast","City":"NEW ORLEANS","State":"LA","Zip":"70130","Descriptio":"4701 HOTELS (EXC CASINO HOTELS) & MOTELS","Address":"2631 Prytania St"}},{"type":"Feature","geometry":{"type":"Point","coordinates":[-90.0749170277,29.9370517757]},"properties":{"Trade_Name":"THE PRYTANIA OAKS HOTEL","City":"NEW ORLEANS","State":"LA","Zip":"70130","Descriptio":"4701 HOTELS (EXC CASINO HOTELS) & MOTELS","Address":"1618 PRYTANIA ST"}},{"type":"Feature","geometry":{"type":"Point","coordinates":[-90.0751896015,29.9371841998]},"properties":{"Trade_Name":"THE QUEEN ANNE HOTEL","City":"NEW ORLEANS","State":"LA","Zip":"70130","Descriptio":"4701 HOTELS (EXC CASINO HOTELS) & MOTELS","Address":"1625 PRYTANIA ST"}},{"type":"Feature","geometry":{"type":"Point","coordinates":[-90.0525975047,29.9675546315]},"properties":{"Trade_Name":"AULD SWEET OLIVE","City":"NEW ORLEANS","State":"LA","Zip":"70117","Descriptio":"4703 BED & BREAKFAST INNS","Address":"2460 N RAMPART ST"}},{"type":"Feature","geometry":{"type":"Point","coordinates":[-90.0630291489,29.9662473194]},"properties":{"Trade_Name":"BANANA COURTYARD","City":"NEW ORLEANS","State":"LA","Zip":"70116-1912","Descriptio":"4703 BED & BREAKFAST INNS","Address":"1422 N RAMPART ST"}},{"type":"Feature","geometry":{"type":"Point","coordinates":[-90.0663714571,29.9624569067]},"properties":{"Trade_Name":"BEST WESTERN FRENCH QUARTER   LANDMARK HOTEL","City":"NEW ORLEANS","State":"LA","Zip":"70116-3011","Descriptio":"4701 HOTELS (EXC CASINO HOTELS) & MOTELS","Address":"920 N RAMPART ST"}},{"type":"Feature","geometry":{"type":"Point","coordinates":[-90.0619582426,29.9669984245]},"properties":{"Trade_Name":"CHEZ PALMIERS BED & BREAKFAST","City":"NEW ORLEANS","State":"LA","Zip":"70116","Descriptio":"4703 BED & BREAKFAST INNS","Address":"1744 N RAMPART ST"}},{"type":"Feature","geometry":{"type":"Point","coordinates":[-90.0654212027,29.9642647114]},"properties":{"Trade_Name":"FRENCH QUARTER SUITES","City":"NEW ORLEANS","State":"LA","Zip":"70116-2434","Descriptio":"4701 HOTELS (EXC CASINO HOTELS) & MOTELS","Address":"1119 N RAMPART ST"}},{"type":"Feature","geometry":{"type":"Point","coordinates":[-90.0574312029,29.9677203919]},"properties":{"Trade_Name":"MARIGNY MANOR HOUSE","City":"NEW ORLEANS","State":"LA","Zip":"70116","Descriptio":"4703 BED & BREAKFAST INNS","Address":"2125 N RAMPART ST"}},{"type":"Feature","geometry":{"type":"Point","coordinates":[-90.0655964593,29.9639160275]},"properties":{"Trade_Name":"NEW ORLEANS COURTYARD HOTEL","City":"NEW ORLEANS","State":"LA","Zip":"70116","Descriptio":"4701 HOTELS (EXC CASINO HOTELS) & MOTELS","Address":"1101 N RAMPART ST"}},{"type":"Feature","geometry":{"type":"Point","coordinates":[-90.066438348,29.9622708738]},"properties":{"Trade_Name":"THE VICTORIAN HOUSE","City":"NEW ORLEANS","State":"LA","Zip":"70116","Descriptio":"4703 BED & BREAKFAST INNS","Address":"914 N RAMPART ST"}},{"type":"Feature","geometry":{"type":"Point","coordinates":[-89.9734003621,30.0355139073]},"properties":{"Trade_Name":"BUDGET LODGE","City":"NEW ORLEANS","State":"LA","Zip":"70127","Descriptio":"4701 HOTELS (EXC CASINO HOTELS) & MOTELS","Address":"5801 READ BLVD"}},{"type":"Feature","geometry":{"type":"Point","coordinates":[-89.9734003621,30.0355139073]},"properties":{"Trade_Name":"JAI AMBE JSN LLC","City":"NEW ORLEANS","State":"LA","Zip":"70127","Descriptio":"4701 HOTELS (EXC CASINO HOTELS) & MOTELS","Address":"5801 READ BLVD"}},{"type":"Feature","geometry":{"type":"Point","coordinates":[-90.0691974891,29.9671754456]},"properties":{"Trade_Name":"JOE & FLO OLD CANDLELIGHT","City":"NEW ORLEANS","State":"LA","Zip":"70116","Descriptio":"4703 BED & BREAKFAST INNS","Address":"1129 N ROBERTSON ST"}},{"type":"Feature","geometry":{"type":"Point","coordinates":[-90.0631437666,29.9601667885]},"properties":{"Trade_Name":"ANDREW JACKSON HOTEL","City":"NEW ORLEANS","State":"LA","Zip":"70116","Descriptio":"4701 HOTELS (EXC CASINO HOTELS) & MOTELS","Address":"919 ROYAL ST"}},{"type":"Feature","geometry":{"type":"Point","coordinates":[-90.0591734864,29.9643403683]},"properties":{"Trade_Name":"CASA DE FURL","City":"NEW ORLEANS","State":"LA","Zip":"70117","Descriptio":"4703 BED & BREAKFAST INNS","Address":"1911 ROYAL ST"}},{"type":"Feature","geometry":{"type":"Point","coordinates":[-90.0632458179,29.9600595778]},"properties":{"Trade_Name":"CORNSTALK HOTEL","City":"NEW ORLEANS","State":"LA","Zip":"70116","Descriptio":"4701 HOTELS (EXC CASINO HOTELS) & MOTELS","Address":"915 ROYAL ST"}},{"type":"Feature","geometry":{"type":"Point","coordinates":[-90.0622950772,29.9604547086]},"properties":{"Trade_Name":"HOTEL ROYAL","City":"NEW ORLEANS","State":"LA","Zip":"70116","Descriptio":"4701 HOTELS (EXC CASINO HOTELS) & MOTELS","Address":"1006 ROYAL ST"}},{"type":"Feature","geometry":{"type":"Point","coordinates":[-90.0509073246,29.9649160333]},"properties":{"Trade_Name":"LE RESIDENCE SAINT JAMES","City":"NEW ORLEANS","State":"LA","Zip":"70117","Descriptio":"4703 BED & BREAKFAST INNS","Address":"2613 ROYAL ST"}},{"type":"Feature","geometry":{"type":"Point","coordinates":[-90.0584242252,29.9642798905]},"properties":{"Trade_Name":"MAISON ROYAL","City":"NEW ORLEANS","State":"LA","Zip":"70116","Descriptio":"4703 BED & BREAKFAST INNS","Address":"2036 ROYAL ST"}},{"type":"Feature","geometry":{"type":"Point","coordinates":[-90.0677257096,29.9545626609]},"properties":{"Trade_Name":"MONTELEONE HOTEL","City":"NEW ORLEANS","State":"LA","Zip":"70130","Descriptio":"4701 HOTELS (EXC CASINO HOTELS) & MOTELS","Address":"214 ROYAL ST"}},{"type":"Feature","geometry":{"type":"Point","coordinates":[-90.0530962448,29.9646216823]},"properties":{"Trade_Name":"ROYAL STREET COURTYARD","City":"NEW ORLEANS","State":"LA","Zip":"70117-7811","Descriptio":"4703 BED & BREAKFAST INNS","Address":"2438 ROYAL ST"}},{"type":"Feature","geometry":{"type":"Point","coordinates":[-90.0622950772,29.9604547086]},"properties":{"Trade_Name":"RUE ROYAL INN","City":"NEW ORLEANS","State":"LA","Zip":"70116-2704","Descriptio":"4701 HOTELS (EXC CASINO HOTELS) & MOTELS","Address":"1006 ROYAL ST"}},{"type":"Feature","geometry":{"type":"Point","coordinates":[-90.0519484234,29.9650549057]},"properties":{"Trade_Name":"SCHIRO'S GUEST HOUSE","City":"NEW ORLEANS","State":"LA","Zip":"70117","Descriptio":"4703 BED & BREAKFAST INNS","Address":"2483 ROYAL ST"}},{"type":"Feature","geometry":{"type":"Point","coordinates":[-90.068428099,29.9536116235]},"properties":{"Trade_Name":"WYNDHAM NEW ORLEANS","City":"NEW ORLEANS","State":"LA","Zip":"70130","Descriptio":"4701 HOTELS (EXC CASINO HOTELS) & MOTELS","Address":"124 ROYAL ST"}},{"type":"Feature","geometry":{"type":"Point","coordinates":[-90.1093287838,29.93133301]},"properties":{"Trade_Name":"AUDUBON GARDEN COTTAGE","City":"NEW ORLEANS","State":"LA","Zip":"70115","Descriptio":"4703 BED & BREAKFAST INNS","Address":"5033 S SARATOGA ST"}},{"type":"Feature","geometry":{"type":"Point","coordinates":[-90.0526567477,29.9644059683]},"properties":{"Trade_Name":"CREOLE COTTAGE","City":"NEW ORLEANS","State":"LA","Zip":"70117-7820","Descriptio":"4703 BED & BREAKFAST INNS","Address":"623 SPAIN ST"}},{"type":"Feature","geometry":{"type":"Point","coordinates":[-90.0531909059,29.9651545086]},"properties":{"Trade_Name":"PIERRE COULON GUEST HOUSE","City":"NEW ORLEANS","State":"LA","Zip":"70117","Descriptio":"4703 BED & BREAKFAST INNS","Address":"712-14 SPAIN ST"}},{"type":"Feature","geometry":{"type":"Point","coordinates":[-90.0668934544,29.9609515293]},"properties":{"Trade_Name":"CREOLE HOUSE","City":"NEW ORLEANS","State":"LA","Zip":"70116","Descriptio":"4701 HOTELS (EXC CASINO HOTELS) & MOTELS","Address":"1013 ST ANN ST"}},{"type":"Feature","geometry":{"type":"Point","coordinates":[-90.0672729866,29.9610004551]},"properties":{"Trade_Name":"MARIE LAVAEAU GUEST HOUSE","City":"NEW ORLEANS","State":"LA","Zip":"70116","Descriptio":"4701 HOTELS (EXC CASINO HOTELS) & MOTELS","Address":"1024 ST ANN ST"}},{"type":"Feature","geometry":{"type":"Point","coordinates":[-90.0634804868,29.9586437609]},"properties":{"Trade_Name":"PLACE D'ARMES HOTEL","City":"NEW ORLEANS","State":"LA","Zip":"70116-3212","Descriptio":"4701 HOTELS (EXC CASINO HOTELS) & MOTELS","Address":"625 ST ANN ST"}},{"type":"Feature","geometry":{"type":"Point","coordinates":[-90.067234179,29.9611925994]},"properties":{"Trade_Name":"THE GENTRY HOUSE","City":"NEW ORLEANS","State":"LA","Zip":"70116-3012","Descriptio":"4703 BED & BREAKFAST INNS","Address":"1031 ST ANN ST"}},{"type":"Feature","geometry":{"type":"Point","coordinates":[-90.0752095161,29.966271033]},"properties":{"Trade_Name":"TIRC HOTEL","City":"NEW ORLEANS","State":"LA","Zip":"70116","Descriptio":"4701 HOTELS (EXC CASINO HOTELS) & MOTELS","Address":"1924 ST ANN ST"}},{"type":"Feature","geometry":{"type":"Point","coordinates":[-90.0831259767,29.9327844391]},"properties":{"Trade_Name":"1851 INN ON ST CHARLES","City":"NEW ORLEANS","State":"LA","Zip":"70130-5825","Descriptio":"4703 BED & BREAKFAST INNS","Address":"2409 ST CHARLES AVE"}},{"type":"Feature","geometry":{"type":"Point","coordinates":[-90.0993024639,29.9272374749]},"properties":{"Trade_Name":"AVENUE INN","City":"NEW ORLEANS","State":"LA","Zip":"70115-4754","Descriptio":"4701 HOTELS (EXC CASINO HOTELS) & MOTELS","Address":"4125 ST CHARLES AVE"}},{"type":"Feature","geometry":{"type":"Point","coordinates":[-90.0706194839,29.9490653474]},"properties":{"Trade_Name":"BLAKE HOTEL NEW ORLEANS","City":"NEW ORLEANS","State":"LA","Zip":"70130","Descriptio":"4701 HOTELS (EXC CASINO HOTELS) & MOTELS","Address":"500 ST CHARLES AVE"}},{"type":"Feature","geometry":{"type":"Point","coordinates":[-90.0961405479,29.9273731782]},"properties":{"Trade_Name":"COLUMNS HOTEL","City":"NEW ORLEANS","State":"LA","Zip":"70115-4638","Descriptio":"4701 HOTELS (EXC CASINO HOTELS) & MOTELS","Address":"3811 ST CHARLES AVE"}},{"type":"Feature","geometry":{"type":"Point","coordinates":[-90.0695373081,29.952373627]},"properties":{"Trade_Name":"COURTYARD BY MARRIOTT IMB-[H/P]","City":"NEW ORLEANS","State":"LA","Zip":"70130-2506","Descriptio":"4701 HOTELS (EXC CASINO HOTELS) & MOTELS","Address":"124 ST CHARLES AVE"}},{"type":"Feature","geometry":{"type":"Point","coordinates":[-90.0801383703,29.9348879192]},"properties":{"Trade_Name":"EXTRA HOLIDAYS","City":"NEW ORLEANS","State":"LA","Zip":"70130","Descriptio":"4701 HOTELS (EXC CASINO HOTELS) & MOTELS","Address":"2111 ST CHARLES AVE"}},{"type":"Feature","geometry":{"type":"Point","coordinates":[-90.079067383,29.935372059]},"properties":{"Trade_Name":"GRAND BOUTIQUE HOTEL","City":"NEW ORLEANS","State":"LA","Zip":"70130","Descriptio":"4701 HOTELS (EXC CASINO HOTELS) & MOTELS","Address":"2001 ST CHARLES AVE"}},{"type":"Feature","geometry":{"type":"Point","coordinates":[-90.0939256001,29.9269487176]},"properties":{"Trade_Name":"HAMPTON INN-ST CHARLES","City":"NEW ORLEANS","State":"LA","Zip":"70115-4635","Descriptio":"4701 HOTELS (EXC CASINO HOTELS) & MOTELS","Address":"3626 ST CHARLES AVE"}},{"type":"Feature","geometry":{"type":"Point","coordinates":[-90.070385445,29.9506927612]},"properties":{"Trade_Name":"HILTON NEW ORLEANS/ ST CHARLES AVENUE","City":"NEW ORLEANS","State":"LA","Zip":"70130","Descriptio":"4701 HOTELS (EXC CASINO HOTELS) & MOTELS","Address":"333 ST CHARLES AVE"}},{"type":"Feature","geometry":{"type":"Point","coordinates":[-90.0758554709,29.938953076]},"properties":{"Trade_Name":"HISTORIC STREETCAR INN","City":"NEW ORLEANS","State":"LA","Zip":"70130","Descriptio":"4701 HOTELS (EXC CASINO HOTELS) & MOTELS","Address":"1509 ST CHARLES AVE"}},{"type":"Feature","geometry":{"type":"Point","coordinates":[-90.0809792717,29.9341624824]},"properties":{"Trade_Name":"HOTEL INDIGO","City":"NEW ORLEANS","State":"LA","Zip":"70130","Descriptio":"4701 HOTELS (EXC CASINO HOTELS) & MOTELS","Address":"2203 ST CHARLES AVE"}},{"type":"Feature","geometry":{"type":"Point","coordinates":[-90.0719685787,29.9436993569]},"properties":{"Trade_Name":"HOTEL LE CIRQUE","City":"NEW ORLEANS","State":"LA","Zip":"70130","Descriptio":"4701 HOTELS (EXC CASINO HOTELS) & MOTELS","Address":"936 ST CHARLES AVE"}},{"type":"Feature","geometry":{"type":"Point","coordinates":[-90.0934246276,29.9280108567]},"properties":{"Trade_Name":"HUBBARD MANSION BED & BREAKFAST","City":"NEW ORLEANS","State":"LA","Zip":"70115","Descriptio":"4703 BED & BREAKFAST INNS","Address":"3535 ST CHARLES AVE"}},{"type":"Feature","geometry":{"type":"Point","coordinates":[-90.0702671767,29.9502341398]},"properties":{"Trade_Name":"INTER - CONTINENTAL ROOMS","City":"NEW ORLEANS","State":"LA","Zip":"70130","Descriptio":"4701 HOTELS (EXC CASINO HOTELS) & MOTELS","Address":"444 ST CHARLES AVE"}},{"type":"Feature","geometry":{"type":"Point","coordinates":[-90.0710378421,29.9477315205]},"properties":{"Trade_Name":"LAFAYETTE HOTEL","City":"NEW ORLEANS","State":"LA","Zip":"","Descriptio":"4701 HOTELS (EXC CASINO HOTELS) & MOTELS","Address":"600 ST CHARLES AVE"}},{"type":"Feature","geometry":{"type":"Point","coordinates":[-90.1257862919,29.9360232529]},"properties":{"Trade_Name":"PARKVIEW GUEST HOUSE","City":"NEW ORLEANS","State":"LA","Zip":"70118","Descriptio":"4701 HOTELS (EXC CASINO HOTELS) & MOTELS","Address":"7004 ST CHARLES AVE"}},{"type":"Feature","geometry":{"type":"Point","coordinates":[-90.0749712969,29.9401558265]},"properties":{"Trade_Name":"QUALITY INN MAISON ST CHARLES","City":"NEW ORLEANS","State":"LA","Zip":"70130","Descriptio":"4701 HOTELS (EXC CASINO HOTELS) & MOTELS","Address":"1319 ST CHARLES AVE"}},{"type":"Feature","geometry":{"type":"Point","coordinates":[-90.0698411446,29.9523832668]},"properties":{"Trade_Name":"ROYAL ST CHARLES HOTEL","City":"NEW ORLEANS","State":"LA","Zip":"70130","Descriptio":"4701 HOTELS (EXC CASINO HOTELS) & MOTELS","Address":"135 ST CHARLES AVE"}},{"type":"Feature","geometry":{"type":"Point","coordinates":[-90.0942771963,29.9269842759]},"properties":{"Trade_Name":"ST CHARLES INN","City":"NEW ORLEANS","State":"LA","Zip":"70115-4635","Descriptio":"4701 HOTELS (EXC CASINO HOTELS) & MOTELS","Address":"3636 ST CHARLES AVE"}},{"type":"Feature","geometry":{"type":"Point","coordinates":[-90.0859357181,29.9312053728]},"properties":{"Trade_Name":"THE GRAND VICTORIAN BED &     BREAKFAST","City":"NEW ORLEANS","State":"LA","Zip":"70130-5929","Descriptio":"4701 HOTELS (EXC CASINO HOTELS) & MOTELS","Address":"2727 ST CHARLES AVE"}},{"type":"Feature","geometry":{"type":"Point","coordinates":[-90.0796570079,29.9351506978]},"properties":{"Trade_Name":"THE PONCHARTRAIN HOTEL","City":"NEW ORLEANS","State":"LA","Zip":"70130","Descriptio":"4704 TRAVELER ACCOMMODATION, ALL OTH","Address":"2031 ST CHARLES AVE"}},{"type":"Feature","geometry":{"type":"Point","coordinates":[-90.0491675427,29.9647076766]},"properties":{"Trade_Name":"KATE & DAVES BED & BREAKFAST","City":"NEW ORLEANS","State":"LA","Zip":"70117-7367","Descriptio":"4703 BED & BREAKFAST INNS","Address":"715 ST FERDINAND ST"}},{"type":"Feature","geometry":{"type":"Point","coordinates":[-90.0684437786,29.9437387622]},"properties":{"Trade_Name":"Residence Inn by Marriott-[H/P]","City":"NEW ORLEANS","State":"LA","Zip":"70130","Descriptio":"4701 HOTELS (EXC CASINO HOTELS) & MOTELS","Address":"345 St Joseph St"}},{"type":"Feature","geometry":{"type":"Point","coordinates":[-90.0662546043,29.9431819427]},"properties":{"Trade_Name":"SPRINGHILL SUITES BY MARRIOTT H/P","City":"NEW ORLEANS","State":"LA","Zip":"70130-3617","Descriptio":"4701 HOTELS (EXC CASINO HOTELS) & MOTELS","Address":"301 ST JOSEPH ST"}},{"type":"Feature","geometry":{"type":"Point","coordinates":[-90.0656711569,29.9562527878]},"properties":{"Trade_Name":"ROYAL ORLEANS HOTEL","City":"NEW ORLEANS","State":"LA","Zip":"70130-2119","Descriptio":"4701 HOTELS (EXC CASINO HOTELS) & MOTELS","Address":"621 ST LOUIS ST"}},{"type":"Feature","geometry":{"type":"Point","coordinates":[-90.06748046,29.9599357191]},"properties":{"Trade_Name":"ST. PETER GUEST HOUSE","City":"NEW ORLEANS","State":"LA","Zip":"70116","Descriptio":"4701 HOTELS (EXC CASINO HOTELS) & MOTELS","Address":"1005 ST PETER ST"}},{"type":"Feature","geometry":{"type":"Point","coordinates":[-90.0668585224,29.9634415856]},"properties":{"Trade_Name":"Garlands Guest House","City":"NEW ORLEANS","State":"LA","Zip":"70116","Descriptio":"4701 HOTELS (EXC CASINO HOTELS) & MOTELS","Address":"1129 St Philip St"}},{"type":"Feature","geometry":{"type":"Point","coordinates":[-90.0622006666,29.9603062132]},"properties":{"Trade_Name":"RUFFINO'S GUEST HOUSE","City":"NEW ORLEANS","State":"LA","Zip":"70116","Descriptio":"4702 ROOMING & BOARDING HOUSES","Address":"631 ST PHILIP ST"}},{"type":"Feature","geometry":{"type":"Point","coordinates":[-90.0620353975,29.9599460761]},"properties":{"Trade_Name":"St. Philip French Quarter Apartments","City":"NEW ORLEANS","State":"LA","Zip":"70116","Descriptio":"4701 HOTELS (EXC CASINO HOTELS) & MOTELS","Address":"612 ST PHILIP ST"}},{"type":"Feature","geometry":{"type":"Point","coordinates":[-90.0673075397,29.9478750836]},"properties":{"Trade_Name":"AMBASSADOR HOTEL","City":"NEW ORLEANS","State":"LA","Zip":"70130","Descriptio":"4701 HOTELS (EXC CASINO HOTELS) & MOTELS","Address":"535 TCHOUPITOULAS ST"}},{"type":"Feature","geometry":{"type":"Point","coordinates":[-90.0672672402,29.9460595781]},"properties":{"Trade_Name":"RENAISSANCE ARTS HOTEL","City":"NEW ORLEANS","State":"LA","Zip":"70130","Descriptio":"4701 HOTELS (EXC CASINO HOTELS) & MOTELS","Address":"700 TCHOUPITOULAS ST"}},{"type":"Feature","geometry":{"type":"Point","coordinates":[-90.067168987,29.9485021065]},"properties":{"Trade_Name":"STAYBRIDGE SUITES NEW ORLEANS","City":"NEW ORLEANS","State":"LA","Zip":"70130","Descriptio":"4701 HOTELS (EXC CASINO HOTELS) & MOTELS","Address":"501 TCHOUPITOULAS ST"}},{"type":"Feature","geometry":{"type":"Point","coordinates":[-90.0658949026,29.9577658936]},"properties":{"Trade_Name":"HOTEL MAISON DE VILLE","City":"NEW ORLEANS","State":"LA","Zip":"70130","Descriptio":"4701 HOTELS (EXC CASINO HOTELS) & MOTELS","Address":"727 TOULOUSE ST"}},{"type":"Feature","geometry":{"type":"Point","coordinates":[-90.0667450619,29.9583979801]},"properties":{"Trade_Name":"HOTEL ST MARIE","City":"NEW ORLEANS","State":"LA","Zip":"70112-3421","Descriptio":"4701 HOTELS (EXC CASINO HOTELS) & MOTELS","Address":"827 TOULOUSE ST"}},{"type":"Feature","geometry":{"type":"Point","coordinates":[-90.0683993265,29.9593552596]},"properties":{"Trade_Name":"MAISON DUPUY HOTEL","City":"NEW ORLEANS","State":"LA","Zip":"70112","Descriptio":"4701 HOTELS (EXC CASINO HOTELS) & MOTELS","Address":"1001 TOULOUSE ST"}},{"type":"Feature","geometry":{"type":"Point","coordinates":[-90.0672052596,29.9580764698]},"properties":{"Trade_Name":"OLIVIER HOUSE HOTEL","City":"NEW ORLEANS","State":"LA","Zip":"70112-3422","Descriptio":"4701 HOTELS (EXC CASINO HOTELS) & MOTELS","Address":"828 TOULOUSE ST"}},{"type":"Feature","geometry":{"type":"Point","coordinates":[-90.0589335494,29.9652056762]},"properties":{"Trade_Name":"BOHEME DE MARIGNY","City":"NEW ORLEANS","State":"LA","Zip":"70116","Descriptio":"4703 BED & BREAKFAST INNS","Address":"735 TOURO ST"}},{"type":"Feature","geometry":{"type":"Point","coordinates":[-90.058802059,29.9660416431]},"properties":{"Trade_Name":"CHEZ NOUS","City":"NEW ORLEANS","State":"LA","Zip":"70116-1635","Descriptio":"4703 BED & BREAKFAST INNS","Address":"825 TOURO ST"}},{"type":"Feature","geometry":{"type":"Point","coordinates":[-90.0588743249,29.9668717209]},"properties":{"Trade_Name":"FLUER DE MARIGNY","City":"NEW ORLEANS","State":"LA","Zip":"70116","Descriptio":"4701 HOTELS (EXC CASINO HOTELS) & MOTELS","Address":"919 TOURO ST"}},{"type":"Feature","geometry":{"type":"Point","coordinates":[-90.0876910233,29.9601380955]},"properties":{"Trade_Name":"CAPRI MOTEL","City":"NEW ORLEANS","State":"LA","Zip":"70119","Descriptio":"4701 HOTELS (EXC CASINO HOTELS) & MOTELS","Address":"2424 TULANE AVE"}},{"type":"Feature","geometry":{"type":"Point","coordinates":[-90.1050005621,29.9686271451]},"properties":{"Trade_Name":"CRYSTAL INN","City":"NEW ORLEANS","State":"LA","Zip":"70119-6829","Descriptio":"4701 HOTELS (EXC CASINO HOTELS) & MOTELS","Address":"4025 TULANE AVE"}},{"type":"Feature","geometry":{"type":"Point","coordinates":[-90.0933440859,29.9626860116]},"properties":{"Trade_Name":"LEPETIT INN LLC","City":"NEW ORLEANS","State":"LA","Zip":"70119-7342","Descriptio":"4701 HOTELS (EXC CASINO HOTELS) & MOTELS","Address":"2836 TULANE AVE"}},{"type":"Feature","geometry":{"type":"Point","coordinates":[-90.1040795737,29.967423957]},"properties":{"Trade_Name":"MIDTOWN HOTEL","City":"NEW ORLEANS","State":"LA","Zip":"70119","Descriptio":"4701 HOTELS (EXC CASINO HOTELS) & MOTELS","Address":"3900 TULANE AVE"}},{"type":"Feature","geometry":{"type":"Point","coordinates":[-90.1003664867,29.9659250155]},"properties":{"Trade_Name":"ROSE INN","City":"NEW ORLEANS","State":"LA","Zip":"70119-7016","Descriptio":"4701 HOTELS (EXC CASINO HOTELS) & MOTELS","Address":"3522 TULANE AVE"}},{"type":"Feature","geometry":{"type":"Point","coordinates":[-90.1011100708,29.9662260107]},"properties":{"Trade_Name":"SWEETS INN MOTEL","City":"NEW ORLEANS","State":"LA","Zip":"70119","Descriptio":"4701 HOTELS (EXC CASINO HOTELS) & MOTELS","Address":"3610 TULANE AVE"}},{"type":"Feature","geometry":{"type":"Point","coordinates":[-90.1013946066,29.966980349]},"properties":{"Trade_Name":"SITE 61 HOSTEL","City":"NEW ORLEANS","State":"LA","Zip":"70119","Descriptio":"4702 ROOMING & BOARDING HOUSES","Address":"3701 ULLOA ST"}},{"type":"Feature","geometry":{"type":"Point","coordinates":[-90.0719301354,29.9547182415]},"properties":{"Trade_Name":"HOTEL MAISON PIERRE LAFITTE   LTD","City":"NEW ORLEANS","State":"LA","Zip":"70112-2502","Descriptio":"4701 HOTELS (EXC CASINO HOTELS) & MOTELS","Address":"108 UNIVERSITY PL"}},{"type":"Feature","geometry":{"type":"Point","coordinates":[-90.0794891362,29.9730279938]},"properties":{"Trade_Name":"CKW INC","City":"NEW ORLEANS","State":"LA","Zip":"70119-3436","Descriptio":"4702 ROOMING & BOARDING HOUSES","Address":"2624 URSULINES AVE"}},{"type":"Feature","geometry":{"type":"Point","coordinates":[-90.0674994804,29.9655529325]},"properties":{"Trade_Name":"EMPRESS HOTEL","City":"NEW ORLEANS","State":"LA","Zip":"70116-2309","Descriptio":"4701 HOTELS (EXC CASINO HOTELS) & MOTELS","Address":"1317 URSULINES AVE"}},{"type":"Feature","geometry":{"type":"Point","coordinates":[-90.0612964368,29.9611266584]},"properties":{"Trade_Name":"Haunted Hotel on Ursulines","City":"NEW ORLEANS","State":"LA","Zip":"70116","Descriptio":"4702 ROOMING & BOARDING HOUSES","Address":"623 Ursulines Ave"}},{"type":"Feature","geometry":{"type":"Point","coordinates":[-90.0694860295,29.966201655]},"properties":{"Trade_Name":"HISTORIC URSULINES COTTAGE","City":"NEW ORLEANS","State":"LA","Zip":"70116","Descriptio":"4703 BED & BREAKFAST INNS","Address":"1520 URSULINES AVE"}},{"type":"Feature","geometry":{"type":"Point","coordinates":[-90.0614245452,29.9606794956]},"properties":{"Trade_Name":"HOTEL VILLA CONVENTO","City":"NEW ORLEANS","State":"LA","Zip":"70116","Descriptio":"4701 HOTELS (EXC CASINO HOTELS) & MOTELS","Address":"616 URSULINES AVE"}},{"type":"Feature","geometry":{"type":"Point","coordinates":[-90.0622596884,29.9613039004]},"properties":{"Trade_Name":"INN ON URSULINES","City":"NEW ORLEANS","State":"LA","Zip":"70116","Descriptio":"4701 HOTELS (EXC CASINO HOTELS) & MOTELS","Address":"708 URSULINES AVE"}},{"type":"Feature","geometry":{"type":"Point","coordinates":[-90.0661247488,29.9639375869]},"properties":{"Trade_Name":"NEW ORELANS GUEST HOUSE","City":"NEW ORLEANS","State":"LA","Zip":"70116","Descriptio":"4701 HOTELS (EXC CASINO HOTELS) & MOTELS","Address":"1118 URSULINES AVE"}}
  ]}